{"type":"FeatureCollection","features":[{"type":"Feature","id":17100,"geometry":{"type":"Point","coordinates":[-105.0475000001059,40.526300000012498]},"properties":{"OBJECTID":17100,"NCESSCH":"080399000147","LEAID":"0803990","NAME":"Kruse Elementary School","OPSTFIPS":"08","STREET":"4400 MCMURRY AVENUE","CITY":"FORT COLLINS","STATE":"CO","ZIP":"80525","STFIP":"08","CNTY":"08069","NMCNTY":"Larimer County","LOCALE":"12","LAT":40.526299999999999,"LON":-105.0475,"CBSA":"22660","NMCBSA":"Fort Collins-Loveland, CO","CBSATYPE":"1","CSA":"N","NMCSA":"N","CD":"0802","SLDL":"08052","SLDU":"08014","SCHOOLYEAR":"2024-2025"}},{"type":"Feature","id":17101,"geometry":{"type":"Point","coordinates":[-105.08660000050807,40.52089999947988]},"properties":{"OBJECTID":17101,"NCESSCH":"080399000165","LEAID":"0803990","NAME":"McGraw Elementary School","OPSTFIPS":"08","STREET":"4800 HINSDALE DRIVE","CITY":"FORT COLLINS","STATE":"CO","ZIP":"80526","STFIP":"08","CNTY":"08069","NMCNTY":"Larimer County","LOCALE":"12","LAT":40.520899999999997,"LON":-105.0866,"CBSA":"22660","NMCBSA":"Fort Collins-Loveland, CO","CBSATYPE":"1","CSA":"N","NMCSA":"N","CD":"0802","SLDL":"08052","SLDU":"08014","SCHOOLYEAR":"2024-2025"}},{"type":"Feature","id":17102,"geometry":{"type":"Point","coordinates":[-105.07350000057306,40.578400000140988]},"properties":{"OBJECTID":17102,"NCESSCH":"080399000517","LEAID":"0803990","NAME":"Centennial High School","OPSTFIPS":"08","STREET":"330 EAST LAUREL STREET","CITY":"FORT COLLINS","STATE":"CO","ZIP":"80524","STFIP":"08","CNTY":"08069","NMCNTY":"Larimer County","LOCALE":"12","LAT":40.578400000000002,"LON":-105.0735,"CBSA":"22660","NMCBSA":"Fort Collins-Loveland, CO","CBSATYPE":"1","CSA":"N","NMCSA":"N","CD":"0802","SLDL":"08053","SLDU":"08014","SCHOOLYEAR":"2024-2025"}},{"type":"Feature","id":17103,"geometry":{"type":"Point","coordinates":[-105.12160000030256,40.566899999137341]},"properties":{"OBJECTID":17103,"NCESSCH":"080399000519","LEAID":"0803990","NAME":"Bauder Elementary School","OPSTFIPS":"08","STREET":"2345 WEST PROSPECT ROAD","CITY":"FORT COLLINS","STATE":"CO","ZIP":"80526","STFIP":"08","CNTY":"08069","NMCNTY":"Larimer County","LOCALE":"12","LAT":40.566899999999997,"LON":-105.1216,"CBSA":"22660","NMCBSA":"Fort Collins-Loveland, CO","CBSATYPE":"1","CSA":"N","NMCSA":"N","CD":"0802","SLDL":"08053","SLDU":"08014","SCHOOLYEAR":"2024-2025"}},{"type":"Feature","id":17104,"geometry":{"type":"Point","coordinates":[-105.08502600038145,40.547143000117273]},"properties":{"OBJECTID":17104,"NCESSCH":"080399000520","LEAID":"0803990","NAME":"Beattie Elementary School","OPSTFIPS":"08","STREET":"3000 MEADOWLARK AVENUE","CITY":"FORT COLLINS","STATE":"CO","ZIP":"80526","STFIP":"08","CNTY":"08069","NMCNTY":"Larimer County","LOCALE":"12","LAT":40.547142999999998,"LON":-105.085026,"CBSA":"22660","NMCBSA":"Fort Collins-Loveland, CO","CBSATYPE":"1","CSA":"N","NMCSA":"N","CD":"0802","SLDL":"08052","SLDU":"08014","SCHOOLYEAR":"2024-2025"}},{"type":"Feature","id":17105,"geometry":{"type":"Point","coordinates":[-105.09770000000979,40.568900000125311]},"properties":{"OBJECTID":17105,"NCESSCH":"080399000521","LEAID":"0803990","NAME":"Bennett Elementary School","OPSTFIPS":"08","STREET":"1125 BENNETT ROAD","CITY":"FORT COLLINS","STATE":"CO","ZIP":"80521","STFIP":"08","CNTY":"08069","NMCNTY":"Larimer County","LOCALE":"12","LAT":40.568899999999999,"LON":-105.0977,"CBSA":"22660","NMCBSA":"Fort Collins-Loveland, CO","CBSATYPE":"1","CSA":"N","NMCSA":"N","CD":"0802","SLDL":"08053","SLDU":"08014","SCHOOLYEAR":"2024-2025"}},{"type":"Feature","id":17106,"geometry":{"type":"Point","coordinates":[-105.11600000008919,40.559500000548049]},"properties":{"OBJECTID":17106,"NCESSCH":"080399000522","LEAID":"0803990","NAME":"Blevins Middle School","OPSTFIPS":"08","STREET":"2101 SOUTH TAFT HILL ROAD","CITY":"FORT COLLINS","STATE":"CO","ZIP":"80526","STFIP":"08","CNTY":"08069","NMCNTY":"Larimer County","LOCALE":"12","LAT":40.5595,"LON":-105.116,"CBSA":"22660","NMCBSA":"Fort Collins-Loveland, CO","CBSATYPE":"1","CSA":"N","NMCSA":"N","CD":"0802","SLDL":"08053","SLDU":"08014","SCHOOLYEAR":"2024-2025"}},{"type":"Feature","id":17107,"geometry":{"type":"Point","coordinates":[-105.06279999965352,40.54250000009089]},"properties":{"OBJECTID":17107,"NCESSCH":"080399000523","LEAID":"0803990","NAME":"Boltz Middle School","OPSTFIPS":"08","STREET":"720 BOLTZ DRIVE","CITY":"FORT COLLINS","STATE":"CO","ZIP":"80525","STFIP":"08","CNTY":"08069","NMCNTY":"Larimer County","LOCALE":"12","LAT":40.542499999999997,"LON":-105.0628,"CBSA":"22660","NMCBSA":"Fort Collins-Loveland, CO","CBSATYPE":"1","CSA":"N","NMCSA":"N","CD":"0802","SLDL":"08052","SLDU":"08014","SCHOOLYEAR":"2024-2025"}},{"type":"Feature","id":17108,"geometry":{"type":"Point","coordinates":[-105.1440999999467,40.626800000536747]},"properties":{"OBJECTID":17108,"NCESSCH":"080399000524","LEAID":"0803990","NAME":"Cache La Poudre Middle School","OPSTFIPS":"08","STREET":"3515 W CR 54G","CITY":"LAPORTE","STATE":"CO","ZIP":"80535","STFIP":"08","CNTY":"08069","NMCNTY":"Larimer County","LOCALE":"21","LAT":40.626800000000003,"LON":-105.14409999999999,"CBSA":"22660","NMCBSA":"Fort Collins-Loveland, CO","CBSATYPE":"1","CSA":"N","NMCSA":"N","CD":"0802","SLDL":"08065","SLDU":"08015","SCHOOLYEAR":"2024-2025"}},{"type":"Feature","id":17109,"geometry":{"type":"Point","coordinates":[-105.14300000066687,40.626599999589388]},"properties":{"OBJECTID":17109,"NCESSCH":"080399000525","LEAID":"0803990","NAME":"Cache La Poudre Elementary School","OPSTFIPS":"08","STREET":"3511 W CR 54G","CITY":"LAPORTE","STATE":"CO","ZIP":"80535","STFIP":"08","CNTY":"08069","NMCNTY":"Larimer County","LOCALE":"21","LAT":40.626600000000003,"LON":-105.143,"CBSA":"22660","NMCBSA":"Fort Collins-Loveland, CO","CBSATYPE":"1","CSA":"N","NMCSA":"N","CD":"0802","SLDL":"08065","SLDU":"08015","SCHOOLYEAR":"2024-2025"}},{"type":"Feature","id":17110,"geometry":{"type":"Point","coordinates":[-105.09230000023058,40.580800000109846]},"properties":{"OBJECTID":17110,"NCESSCH":"080399000526","LEAID":"0803990","NAME":"Dunn Elementary School","OPSTFIPS":"08","STREET":"501 SOUTH WASHINGTON","CITY":"FORT COLLINS","STATE":"CO","ZIP":"80521","STFIP":"08","CNTY":"08069","NMCNTY":"Larimer County","LOCALE":"12","LAT":40.580800000000004,"LON":-105.09229999999999,"CBSA":"22660","NMCBSA":"Fort Collins-Loveland, CO","CBSATYPE":"1","CSA":"N","NMCSA":"N","CD":"0802","SLDL":"08053","SLDU":"08014","SCHOOLYEAR":"2024-2025"}},{"type":"Feature","id":17111,"geometry":{"type":"Point","coordinates":[-105.00169999932089,40.710500000021696]},"properties":{"OBJECTID":17111,"NCESSCH":"080399000527","LEAID":"0803990","NAME":"Eyestone Elementary School","OPSTFIPS":"08","STREET":"4000 WILSON AVENUE","CITY":"WELLINGTON","STATE":"CO","ZIP":"80549","STFIP":"08","CNTY":"08069","NMCNTY":"Larimer County","LOCALE":"31","LAT":40.710500000000003,"LON":-105.0017,"CBSA":"22660","NMCBSA":"Fort Collins-Loveland, CO","CBSATYPE":"1","CSA":"N","NMCSA":"N","CD":"0804","SLDL":"08065","SLDU":"08015","SCHOOLYEAR":"2024-2025"}},{"type":"Feature","id":17112,"geometry":{"type":"Point","coordinates":[-105.03630000023364,40.540299999698618]},"properties":{"OBJECTID":17112,"NCESSCH":"080399000528","LEAID":"0803990","NAME":"Fort Collins High School","OPSTFIPS":"08","STREET":"3400 LAMBKIN WAY","CITY":"FORT COLLINS","STATE":"CO","ZIP":"80525","STFIP":"08","CNTY":"08069","NMCNTY":"Larimer County","LOCALE":"12","LAT":40.540300000000002,"LON":-105.0363,"CBSA":"22660","NMCBSA":"Fort Collins-Loveland, CO","CBSATYPE":"1","CSA":"N","NMCSA":"N","CD":"0802","SLDL":"08052","SLDU":"08014","SCHOOLYEAR":"2024-2025"}},{"type":"Feature","id":17113,"geometry":{"type":"Point","coordinates":[-105.12200000080171,40.59439999979363]},"properties":{"OBJECTID":17113,"NCESSCH":"080399000533","LEAID":"0803990","NAME":"Irish Elementary School","OPSTFIPS":"08","STREET":"515 IRISH DRIVE","CITY":"FORT COLLINS","STATE":"CO","ZIP":"80521","STFIP":"08","CNTY":"08069","NMCNTY":"Larimer County","LOCALE":"12","LAT":40.5944,"LON":-105.122,"CBSA":"22660","NMCBSA":"Fort Collins-Loveland, CO","CBSATYPE":"1","CSA":"N","NMCSA":"N","CD":"0802","SLDL":"08053","SLDU":"08014","SCHOOLYEAR":"2024-2025"}},{"type":"Feature","id":17114,"geometry":{"type":"Point","coordinates":[-105.10613399974741,40.599431999610879]},"properties":{"OBJECTID":17114,"NCESSCH":"080399000536","LEAID":"0803990","NAME":"Lincoln Middle School","OPSTFIPS":"08","STREET":"1600 LANCER DRIVE","CITY":"FORT COLLINS","STATE":"CO","ZIP":"80521","STFIP":"08","CNTY":"08069","NMCNTY":"Larimer County","LOCALE":"12","LAT":40.599432,"LON":-105.106134,"CBSA":"22660","NMCBSA":"Fort Collins-Loveland, CO","CBSATYPE":"1","CSA":"N","NMCSA":"N","CD":"0802","SLDL":"08053","SLDU":"08014","SCHOOLYEAR":"2024-2025"}},{"type":"Feature","id":17115,"geometry":{"type":"Point","coordinates":[-105.0721999993653,40.55490000008065]},"properties":{"OBJECTID":17115,"NCESSCH":"080399000539","LEAID":"0803990","NAME":"O'Dea Elementary School","OPSTFIPS":"08","STREET":"312 PRINCETON ROAD","CITY":"FORT COLLINS","STATE":"CO","ZIP":"80525","STFIP":"08","CNTY":"08069","NMCNTY":"Larimer County","LOCALE":"12","LAT":40.554900000000004,"LON":-105.0722,"CBSA":"22660","NMCBSA":"Fort Collins-Loveland, CO","CBSATYPE":"1","CSA":"N","NMCSA":"N","CD":"0802","SLDL":"08053","SLDU":"08014","SCHOOLYEAR":"2024-2025"}},{"type":"Feature","id":17116,"geometry":{"type":"Point","coordinates":[-105.12149999971894,40.586599999784688]},"properties":{"OBJECTID":17116,"NCESSCH":"080399000541","LEAID":"0803990","NAME":"Poudre High School","OPSTFIPS":"08","STREET":"201 IMPALA DRIVE","CITY":"FORT COLLINS","STATE":"CO","ZIP":"80521","STFIP":"08","CNTY":"08069","NMCNTY":"Larimer County","LOCALE":"12","LAT":40.586599999999997,"LON":-105.1215,"CBSA":"22660","NMCBSA":"Fort Collins-Loveland, CO","CBSATYPE":"1","CSA":"N","NMCSA":"N","CD":"0802","SLDL":"08053","SLDU":"08014","SCHOOLYEAR":"2024-2025"}},{"type":"Feature","id":17117,"geometry":{"type":"Point","coordinates":[-105.10189999981944,40.591799999893212]},"properties":{"OBJECTID":17117,"NCESSCH":"080399000542","LEAID":"0803990","NAME":"Putnam Elementary School","OPSTFIPS":"08","STREET":"1400 MAPLE STREET","CITY":"FORT COLLINS","STATE":"CO","ZIP":"80521","STFIP":"08","CNTY":"08069","NMCNTY":"Larimer County","LOCALE":"12","LAT":40.591799999999999,"LON":-105.1019,"CBSA":"22660","NMCBSA":"Fort Collins-Loveland, CO","CBSATYPE":"1","CSA":"N","NMCSA":"N","CD":"0802","SLDL":"08053","SLDU":"08014","SCHOOLYEAR":"2024-2025"}},{"type":"Feature","id":17118,"geometry":{"type":"Point","coordinates":[-105.05259999988115,40.563500000644353]},"properties":{"OBJECTID":17118,"NCESSCH":"080399000544","LEAID":"0803990","NAME":"Riffenburgh Elementary School","OPSTFIPS":"08","STREET":"1320 EAST STUART STREET","CITY":"FORT COLLINS","STATE":"CO","ZIP":"80525","STFIP":"08","CNTY":"08069","NMCNTY":"Larimer County","LOCALE":"12","LAT":40.563499999999998,"LON":-105.0526,"CBSA":"22660","NMCBSA":"Fort Collins-Loveland, CO","CBSATYPE":"1","CSA":"N","NMCSA":"N","CD":"0802","SLDL":"08052","SLDU":"08014","SCHOOLYEAR":"2024-2025"}},{"type":"Feature","id":17119,"geometry":{"type":"Point","coordinates":[-105.09959999977981,40.547300000090821]},"properties":{"OBJECTID":17119,"NCESSCH":"080399000545","LEAID":"0803990","NAME":"Rocky Mountain High School","OPSTFIPS":"08","STREET":"1300 WEST SWALLOW ROAD","CITY":"FORT COLLINS","STATE":"CO","ZIP":"80526","STFIP":"08","CNTY":"08069","NMCNTY":"Larimer County","LOCALE":"12","LAT":40.5473,"LON":-105.0996,"CBSA":"22660","NMCBSA":"Fort Collins-Loveland, CO","CBSATYPE":"1","CSA":"N","NMCSA":"N","CD":"0802","SLDL":"08053","SLDU":"08014","SCHOOLYEAR":"2024-2025"}},{"type":"Feature","id":17120,"geometry":{"type":"Point","coordinates":[-105.05650000021376,40.615399999327195]},"properties":{"OBJECTID":17120,"NCESSCH":"080399000547","LEAID":"0803990","NAME":"Tavelli Elementary School","OPSTFIPS":"08","STREET":"1118 MIRAMOUNT DRIVE","CITY":"FORT COLLINS","STATE":"CO","ZIP":"80524","STFIP":"08","CNTY":"08069","NMCNTY":"Larimer County","LOCALE":"12","LAT":40.615400000000001,"LON":-105.0565,"CBSA":"22660","NMCBSA":"Fort Collins-Loveland, CO","CBSATYPE":"1","CSA":"N","NMCSA":"N","CD":"0802","SLDL":"08053","SLDU":"08014","SCHOOLYEAR":"2024-2025"}},{"type":"Feature","id":17121,"geometry":{"type":"Point","coordinates":[-104.98309999993282,40.532599999481178]},"properties":{"OBJECTID":17121,"NCESSCH":"080399000548","LEAID":"0803990","NAME":"Timnath Elementary School","OPSTFIPS":"08","STREET":"3909 MAIN STREET","CITY":"TIMNATH","STATE":"CO","ZIP":"80547","STFIP":"08","CNTY":"08069","NMCNTY":"Larimer County","LOCALE":"21","LAT":40.532600000000002,"LON":-104.98309999999999,"CBSA":"22660","NMCBSA":"Fort Collins-Loveland, CO","CBSATYPE":"1","CSA":"N","NMCSA":"N","CD":"0802","SLDL":"08065","SLDU":"08023","SCHOOLYEAR":"2024-2025"}},{"type":"Feature","id":17122,"geometry":{"type":"Point","coordinates":[-105.00200000015339,40.708599999745694]},"properties":{"OBJECTID":17122,"NCESSCH":"080399000551","LEAID":"0803990","NAME":"Wellington Middle-High School","OPSTFIPS":"08","STREET":"4001 WILSON AVENUE","CITY":"WELLINGTON","STATE":"CO","ZIP":"80549","STFIP":"08","CNTY":"08069","NMCNTY":"Larimer County","LOCALE":"31","LAT":40.708599999999997,"LON":-105.002,"CBSA":"22660","NMCBSA":"Fort Collins-Loveland, CO","CBSATYPE":"1","CSA":"N","NMCSA":"N","CD":"0804","SLDL":"08065","SLDU":"08015","SCHOOLYEAR":"2024-2025"}},{"type":"Feature","id":17123,"geometry":{"type":"Point","coordinates":[-105.06980000015785,40.573899999803423]},"properties":{"OBJECTID":17123,"NCESSCH":"080399000573","LEAID":"0803990","NAME":"Harris Bilingual Elementary School","OPSTFIPS":"08","STREET":"501 EAST ELIZABETH","CITY":"FORT COLLINS","STATE":"CO","ZIP":"80524","STFIP":"08","CNTY":"08069","NMCNTY":"Larimer County","LOCALE":"12","LAT":40.573900000000002,"LON":-105.0698,"CBSA":"22660","NMCBSA":"Fort Collins-Loveland, CO","CBSATYPE":"1","CSA":"N","NMCSA":"N","CD":"0802","SLDL":"08053","SLDU":"08014","SCHOOLYEAR":"2024-2025"}},{"type":"Feature","id":17124,"geometry":{"type":"Point","coordinates":[-105.06250000071174,40.575899999596984]},"properties":{"OBJECTID":17124,"NCESSCH":"080399000583","LEAID":"0803990","NAME":"Laurel Elementary School","OPSTFIPS":"08","STREET":"1000 EAST LOCUST STREET","CITY":"FORT COLLINS","STATE":"CO","ZIP":"80524","STFIP":"08","CNTY":"08069","NMCNTY":"Larimer County","LOCALE":"12","LAT":40.575899999999997,"LON":-105.0625,"CBSA":"22660","NMCBSA":"Fort Collins-Loveland, CO","CBSATYPE":"1","CSA":"N","NMCSA":"N","CD":"0802","SLDL":"08053","SLDU":"08014","SCHOOLYEAR":"2024-2025"}},{"type":"Feature","id":17125,"geometry":{"type":"Point","coordinates":[-105.02899999988914,40.518800000331389]},"properties":{"OBJECTID":17125,"NCESSCH":"080399000606","LEAID":"0803990","NAME":"Traut Core Elementary School","OPSTFIPS":"08","STREET":"2515 TIMBERWOOD DRIVE","CITY":"FORT COLLINS","STATE":"CO","ZIP":"80528","STFIP":"08","CNTY":"08069","NMCNTY":"Larimer County","LOCALE":"12","LAT":40.518799999999999,"LON":-105.029,"CBSA":"22660","NMCBSA":"Fort Collins-Loveland, CO","CBSATYPE":"1","CSA":"N","NMCSA":"N","CD":"0802","SLDL":"08052","SLDU":"08023","SCHOOLYEAR":"2024-2025"}},{"type":"Feature","id":17126,"geometry":{"type":"Point","coordinates":[-105.0251999999826,40.518599999577027]},"properties":{"OBJECTID":17126,"NCESSCH":"080399001091","LEAID":"0803990","NAME":"Preston Middle School","OPSTFIPS":"08","STREET":"4901 CORBETT DRIVE","CITY":"FORT COLLINS","STATE":"CO","ZIP":"80528","STFIP":"08","CNTY":"08069","NMCNTY":"Larimer County","LOCALE":"12","LAT":40.518599999999999,"LON":-105.0252,"CBSA":"22660","NMCBSA":"Fort Collins-Loveland, CO","CBSATYPE":"1","CSA":"N","NMCSA":"N","CD":"0802","SLDL":"08052","SLDU":"08023","SCHOOLYEAR":"2024-2025"}},{"type":"Feature","id":17127,"geometry":{"type":"Point","coordinates":[-105.05080000079565,40.541899999872271]},"properties":{"OBJECTID":17127,"NCESSCH":"080399001280","LEAID":"0803990","NAME":"Shepardson Elementary School","OPSTFIPS":"08","STREET":"1501 SPRINGWOOD DRIVE","CITY":"FORT COLLINS","STATE":"CO","ZIP":"80525","STFIP":"08","CNTY":"08069","NMCNTY":"Larimer County","LOCALE":"12","LAT":40.541899999999998,"LON":-105.0508,"CBSA":"22660","NMCBSA":"Fort Collins-Loveland, CO","CBSATYPE":"1","CSA":"N","NMCSA":"N","CD":"0802","SLDL":"08052","SLDU":"08014","SCHOOLYEAR":"2024-2025"}},{"type":"Feature","id":17128,"geometry":{"type":"Point","coordinates":[-105.06619999967944,40.568700000364508]},"properties":{"OBJECTID":17128,"NCESSCH":"080399001408","LEAID":"0803990","NAME":"Lesher Middle School","OPSTFIPS":"08","STREET":"1400 STOVER STREET","CITY":"FORT COLLINS","STATE":"CO","ZIP":"80524","STFIP":"08","CNTY":"08069","NMCNTY":"Larimer County","LOCALE":"12","LAT":40.5687,"LON":-105.06619999999999,"CBSA":"22660","NMCBSA":"Fort Collins-Loveland, CO","CBSATYPE":"1","CSA":"N","NMCSA":"N","CD":"0802","SLDL":"08053","SLDU":"08014","SCHOOLYEAR":"2024-2025"}},{"type":"Feature","id":17129,"geometry":{"type":"Point","coordinates":[-105.08870000033924,40.531799999793172]},"properties":{"OBJECTID":17129,"NCESSCH":"080399001409","LEAID":"0803990","NAME":"Lopez Elementary School","OPSTFIPS":"08","STREET":"637 WABASH STREET","CITY":"FORT COLLINS","STATE":"CO","ZIP":"80526","STFIP":"08","CNTY":"08069","NMCNTY":"Larimer County","LOCALE":"12","LAT":40.531799999999997,"LON":-105.0887,"CBSA":"22660","NMCBSA":"Fort Collins-Loveland, CO","CBSATYPE":"1","CSA":"N","NMCSA":"N","CD":"0802","SLDL":"08052","SLDU":"08014","SCHOOLYEAR":"2024-2025"}},{"type":"Feature","id":17130,"geometry":{"type":"Point","coordinates":[-105.06649999982474,40.512599999807122]},"properties":{"OBJECTID":17130,"NCESSCH":"080399001440","LEAID":"0803990","NAME":"Werner Elementary School","OPSTFIPS":"08","STREET":"5400 MAIL CREEK LANE","CITY":"FORT COLLINS","STATE":"CO","ZIP":"80525","STFIP":"08","CNTY":"08069","NMCNTY":"Larimer County","LOCALE":"12","LAT":40.512599999999999,"LON":-105.0665,"CBSA":"22660","NMCBSA":"Fort Collins-Loveland, CO","CBSATYPE":"1","CSA":"N","NMCSA":"N","CD":"0802","SLDL":"08052","SLDU":"08014","SCHOOLYEAR":"2024-2025"}},{"type":"Feature","id":17131,"geometry":{"type":"Point","coordinates":[-105.10349999958488,40.53029999952863]},"properties":{"OBJECTID":17131,"NCESSCH":"080399001480","LEAID":"0803990","NAME":"Johnson Elementary School","OPSTFIPS":"08","STREET":"4101 SENECA STREET","CITY":"FORT COLLINS","STATE":"CO","ZIP":"80526","STFIP":"08","CNTY":"08069","NMCNTY":"Larimer County","LOCALE":"12","LAT":40.530299999999997,"LON":-105.1035,"CBSA":"22660","NMCBSA":"Fort Collins-Loveland, CO","CBSATYPE":"1","CSA":"N","NMCSA":"N","CD":"0802","SLDL":"08052","SLDU":"08014","SCHOOLYEAR":"2024-2025"}},{"type":"Feature","id":17132,"geometry":{"type":"Point","coordinates":[-105.03150000015764,40.532499999994599]},"properties":{"OBJECTID":17132,"NCESSCH":"080399001498","LEAID":"0803990","NAME":"Linton Elementary School","OPSTFIPS":"08","STREET":"4100 CARIBOU DRIVE","CITY":"FORT COLLINS","STATE":"CO","ZIP":"80525","STFIP":"08","CNTY":"08069","NMCNTY":"Larimer County","LOCALE":"12","LAT":40.532499999999999,"LON":-105.03149999999999,"CBSA":"22660","NMCBSA":"Fort Collins-Loveland, CO","CBSATYPE":"1","CSA":"N","NMCSA":"N","CD":"0802","SLDL":"08052","SLDU":"08023","SCHOOLYEAR":"2024-2025"}},{"type":"Feature","id":17133,"geometry":{"type":"Point","coordinates":[-105.03059999981247,40.563799999266131]},"properties":{"OBJECTID":17133,"NCESSCH":"080399001608","LEAID":"0803990","NAME":"Liberty Common Charter School","OPSTFIPS":"08","STREET":"1725 SHARP POINT DRIVE","CITY":"FORT COLLINS","STATE":"CO","ZIP":"80525","STFIP":"08","CNTY":"08069","NMCNTY":"Larimer County","LOCALE":"12","LAT":40.563800000000001,"LON":-105.03060000000001,"CBSA":"22660","NMCBSA":"Fort Collins-Loveland, CO","CBSATYPE":"1","CSA":"N","NMCSA":"N","CD":"0802","SLDL":"08052","SLDU":"08014","SCHOOLYEAR":"2024-2025"}},{"type":"Feature","id":17134,"geometry":{"type":"Point","coordinates":[-105.0572999998851,40.562800000212448]},"properties":{"OBJECTID":17134,"NCESSCH":"080399001717","LEAID":"0803990","NAME":"Ridgeview Classical Schools","OPSTFIPS":"08","STREET":"1800 SOUTH LEMAY AVENUE","CITY":"FORT COLLINS","STATE":"CO","ZIP":"80525","STFIP":"08","CNTY":"08069","NMCNTY":"Larimer County","LOCALE":"12","LAT":40.562800000000003,"LON":-105.0573,"CBSA":"22660","NMCBSA":"Fort Collins-Loveland, CO","CBSATYPE":"1","CSA":"N","NMCSA":"N","CD":"0802","SLDL":"08052","SLDU":"08014","SCHOOLYEAR":"2024-2025"}},{"type":"Feature","id":17135,"geometry":{"type":"Point","coordinates":[-105.00719999952439,40.508199999468133]},"properties":{"OBJECTID":17135,"NCESSCH":"080399001727","LEAID":"0803990","NAME":"Zach Elementary School","OPSTFIPS":"08","STREET":"3715 KECHTER ROAD","CITY":"FORT COLLINS","STATE":"CO","ZIP":"80528","STFIP":"08","CNTY":"08069","NMCNTY":"Larimer County","LOCALE":"12","LAT":40.508200000000002,"LON":-105.0072,"CBSA":"22660","NMCBSA":"Fort Collins-Loveland, CO","CBSATYPE":"1","CSA":"N","NMCSA":"N","CD":"0802","SLDL":"08052","SLDU":"08023","SCHOOLYEAR":"2024-2025"}},{"type":"Feature","id":17136,"geometry":{"type":"Point","coordinates":[-105.01560000026191,40.514599999727366]},"properties":{"OBJECTID":17136,"NCESSCH":"080399001848","LEAID":"0803990","NAME":"Fossil Ridge High School","OPSTFIPS":"08","STREET":"5400 ZIEGLER ROAD","CITY":"FORT COLLINS","STATE":"CO","ZIP":"80528","STFIP":"08","CNTY":"08069","NMCNTY":"Larimer County","LOCALE":"12","LAT":40.514600000000002,"LON":-105.01560000000001,"CBSA":"22660","NMCBSA":"Fort Collins-Loveland, CO","CBSATYPE":"1","CSA":"N","NMCSA":"N","CD":"0802","SLDL":"08052","SLDU":"08023","SCHOOLYEAR":"2024-2025"}},{"type":"Feature","id":17137,"geometry":{"type":"Point","coordinates":[-105.02180000043323,40.504299999896475]},"properties":{"OBJECTID":17137,"NCESSCH":"080399001849","LEAID":"0803990","NAME":"Kinard Core Knowledge Middle School","OPSTFIPS":"08","STREET":"3002 EAST TRILBY ROAD","CITY":"FORT COLLINS","STATE":"CO","ZIP":"80528","STFIP":"08","CNTY":"08069","NMCNTY":"Larimer County","LOCALE":"12","LAT":40.504300000000001,"LON":-105.0218,"CBSA":"22660","NMCBSA":"Fort Collins-Loveland, CO","CBSATYPE":"1","CSA":"N","NMCSA":"N","CD":"0802","SLDL":"08052","SLDU":"08023","SCHOOLYEAR":"2024-2025"}},{"type":"Feature","id":17138,"geometry":{"type":"Point","coordinates":[-105.12469999984488,40.589699999969511]},"properties":{"OBJECTID":17138,"NCESSCH":"080399001938","LEAID":"0803990","NAME":"Poudre Community Academy","OPSTFIPS":"08","STREET":"2540 LAPORTE AVENUE","CITY":"FORT COLLINS","STATE":"CO","ZIP":"80521","STFIP":"08","CNTY":"08069","NMCNTY":"Larimer County","LOCALE":"12","LAT":40.589700000000001,"LON":-105.1247,"CBSA":"22660","NMCBSA":"Fort Collins-Loveland, CO","CBSATYPE":"1","CSA":"N","NMCSA":"N","CD":"0802","SLDL":"08053","SLDU":"08014","SCHOOLYEAR":"2024-2025"}},{"type":"Feature","id":17139,"geometry":{"type":"Point","coordinates":[-105.03760000002559,40.503699999682937]},"properties":{"OBJECTID":17139,"NCESSCH":"080399001973","LEAID":"0803990","NAME":"Bacon Elementary School","OPSTFIPS":"08","STREET":"5844 SOUTH TIMBERLINE ROAD","CITY":"FORT COLLINS","STATE":"CO","ZIP":"80528","STFIP":"08","CNTY":"08069","NMCNTY":"Larimer County","LOCALE":"12","LAT":40.503700000000002,"LON":-105.0376,"CBSA":"22660","NMCBSA":"Fort Collins-Loveland, CO","CBSATYPE":"1","CSA":"N","NMCSA":"N","CD":"0802","SLDL":"08052","SLDU":"08023","SCHOOLYEAR":"2024-2025"}},{"type":"Feature","id":17140,"geometry":{"type":"Point","coordinates":[-105.12059999969587,40.539599999547967]},"properties":{"OBJECTID":17140,"NCESSCH":"080399006161","LEAID":"0803990","NAME":"Olander Elementary School","OPSTFIPS":"08","STREET":"3401 AUNTIE STONE STREET","CITY":"FORT COLLINS","STATE":"CO","ZIP":"80526","STFIP":"08","CNTY":"08069","NMCNTY":"Larimer County","LOCALE":"12","LAT":40.5396,"LON":-105.1206,"CBSA":"22660","NMCBSA":"Fort Collins-Loveland, CO","CBSATYPE":"1","CSA":"N","NMCSA":"N","CD":"0802","SLDL":"08053","SLDU":"08014","SCHOOLYEAR":"2024-2025"}},{"type":"Feature","id":17141,"geometry":{"type":"Point","coordinates":[-105.10499999958709,40.527500000044945]},"properties":{"OBJECTID":17141,"NCESSCH":"080399006162","LEAID":"0803990","NAME":"Webber Middle School","OPSTFIPS":"08","STREET":"4201 SENECA STREET","CITY":"FORT COLLINS","STATE":"CO","ZIP":"80526","STFIP":"08","CNTY":"08069","NMCNTY":"Larimer County","LOCALE":"12","LAT":40.527500000000003,"LON":-105.105,"CBSA":"22660","NMCBSA":"Fort Collins-Loveland, CO","CBSATYPE":"1","CSA":"N","NMCSA":"N","CD":"0802","SLDL":"08052","SLDU":"08014","SCHOOLYEAR":"2024-2025"}},{"type":"Feature","id":17142,"geometry":{"type":"Point","coordinates":[-105.00361099990951,40.687608999818629]},"properties":{"OBJECTID":17142,"NCESSCH":"080399006315","LEAID":"0803990","NAME":"Rice Elementary School","OPSTFIPS":"08","STREET":"7000 THIRD STREET","CITY":"WELLINGTON","STATE":"CO","ZIP":"80549","STFIP":"08","CNTY":"08069","NMCNTY":"Larimer County","LOCALE":"31","LAT":40.687609000000002,"LON":-105.00361100000001,"CBSA":"22660","NMCBSA":"Fort Collins-Loveland, CO","CBSATYPE":"1","CSA":"N","NMCSA":"N","CD":"0804","SLDL":"08065","SLDU":"08015","SCHOOLYEAR":"2024-2025"}},{"type":"Feature","id":17143,"geometry":{"type":"Point","coordinates":[-105.11134300031512,40.578129000380876]},"properties":{"OBJECTID":17143,"NCESSCH":"080399006334","LEAID":"0803990","NAME":"Polaris Expeditionary Learning School","OPSTFIPS":"08","STREET":"1905 ORCHARD PLACE","CITY":"FORT COLLINS","STATE":"CO","ZIP":"80521","STFIP":"08","CNTY":"08069","NMCNTY":"Larimer County","LOCALE":"12","LAT":40.578128999999997,"LON":-105.11134300000001,"CBSA":"22660","NMCBSA":"Fort Collins-Loveland, CO","CBSATYPE":"1","CSA":"N","NMCSA":"N","CD":"0802","SLDL":"08053","SLDU":"08014","SCHOOLYEAR":"2024-2025"}},{"type":"Feature","id":17144,"geometry":{"type":"Point","coordinates":[-104.95096700023775,40.514490000345653]},"properties":{"OBJECTID":17144,"NCESSCH":"080399006380","LEAID":"0803990","NAME":"Bethke Elementary School","OPSTFIPS":"08","STREET":"5100 SCHOOL HOUSE DRIVE","CITY":"TIMNATH","STATE":"CO","ZIP":"80547","STFIP":"08","CNTY":"08069","NMCNTY":"Larimer County","LOCALE":"21","LAT":40.514490000000002,"LON":-104.95096700000001,"CBSA":"22660","NMCBSA":"Fort Collins-Loveland, CO","CBSATYPE":"1","CSA":"N","NMCSA":"N","CD":"0802","SLDL":"08065","SLDU":"08023","SCHOOLYEAR":"2024-2025"}},{"type":"Feature","id":17145,"geometry":{"type":"Point","coordinates":[-105.06691299958071,40.56656400002651]},"properties":{"OBJECTID":17145,"NCESSCH":"080399006431","LEAID":"0803990","NAME":"PSD Global Academy","OPSTFIPS":"08","STREET":"703 EAST PROSPECT ROAD","CITY":"FORT COLLINS","STATE":"CO","ZIP":"80521","STFIP":"08","CNTY":"08069","NMCNTY":"Larimer County","LOCALE":"12","LAT":40.566564,"LON":-105.066913,"CBSA":"22660","NMCBSA":"Fort Collins-Loveland, CO","CBSATYPE":"1","CSA":"N","NMCSA":"N","CD":"0802","SLDL":"08053","SLDU":"08014","SCHOOLYEAR":"2024-2025"}},{"type":"Feature","id":17146,"geometry":{"type":"Point","coordinates":[-105.03523400036961,40.567696000456365]},"properties":{"OBJECTID":17146,"NCESSCH":"080399006573","LEAID":"0803990","NAME":"Mountain Sage Community School","OPSTFIPS":"08","STREET":"2310 EAST PROSPECT ROAD SUITE A","CITY":"FORT COLLINS","STATE":"CO","ZIP":"80525","STFIP":"08","CNTY":"08069","NMCNTY":"Larimer County","LOCALE":"41","LAT":40.567695999999998,"LON":-105.035234,"CBSA":"22660","NMCBSA":"Fort Collins-Loveland, CO","CBSATYPE":"1","CSA":"N","NMCSA":"N","CD":"0802","SLDL":"08052","SLDU":"08014","SCHOOLYEAR":"2024-2025"}},{"type":"Feature","id":17147,"geometry":{"type":"Point","coordinates":[-105.09733600025521,40.522995999990577]},"properties":{"OBJECTID":17147,"NCESSCH":"080399006613","LEAID":"0803990","NAME":"Fort Collins Montessori School","OPSTFIPS":"08","STREET":"1109 WEST HARMONY RD","CITY":"FORT COLLINS","STATE":"CO","ZIP":"80526","STFIP":"08","CNTY":"08069","NMCNTY":"Larimer County","LOCALE":"12","LAT":40.522995999999999,"LON":-105.097336,"CBSA":"22660","NMCBSA":"Fort Collins-Loveland, CO","CBSATYPE":"1","CSA":"N","NMCSA":"N","CD":"0802","SLDL":"08052","SLDU":"08014","SCHOOLYEAR":"2024-2025"}},{"type":"Feature","id":17148,"geometry":{"type":"Point","coordinates":[-105.07831899944026,40.56020600035292]},"properties":{"OBJECTID":17148,"NCESSCH":"080399006762","LEAID":"0803990","NAME":"Compass Community Collaborative School","OPSTFIPS":"08","STREET":"2105 SOUTH COLLEGE AVENUE","CITY":"FORT COLLINS","STATE":"CO","ZIP":"80525","STFIP":"08","CNTY":"08069","NMCNTY":"Larimer County","LOCALE":"12","LAT":40.560206000000001,"LON":-105.07831899999999,"CBSA":"22660","NMCBSA":"Fort Collins-Loveland, CO","CBSATYPE":"1","CSA":"N","NMCSA":"N","CD":"0802","SLDL":"08053","SLDU":"08014","SCHOOLYEAR":"2024-2025"}},{"type":"Feature","id":17149,"geometry":{"type":"Point","coordinates":[-105.6105640004087,40.800076000646463]},"properties":{"OBJECTID":17149,"NCESSCH":"080399006776","LEAID":"0803990","NAME":"PSD Mountain Schools","OPSTFIPS":"08","STREET":"505 N COUNTY ROAD 73C","CITY":"RED FEATHER LAKES","STATE":"CO","ZIP":"80545","STFIP":"08","CNTY":"08069","NMCNTY":"Larimer County","LOCALE":"43","LAT":40.800075999999997,"LON":-105.610564,"CBSA":"22660","NMCBSA":"Fort Collins-Loveland, CO","CBSATYPE":"1","CSA":"N","NMCSA":"N","CD":"0802","SLDL":"08049","SLDU":"08015","SCHOOLYEAR":"2024-2025"}},{"type":"Feature","id":17150,"geometry":{"type":"Point","coordinates":[-104.98498399973515,40.462347999879903]},"properties":{"OBJECTID":17150,"NCESSCH":"080399006827","LEAID":"0803990","NAME":"Bamford Elementary School","OPSTFIPS":"08","STREET":"6055 TRAVERS STAKES STREET","CITY":"LOVELAND","STATE":"CO","ZIP":"80538","STFIP":"08","CNTY":"08069","NMCNTY":"Larimer County","LOCALE":"41","LAT":40.462347999999999,"LON":-104.984984,"CBSA":"22660","NMCBSA":"Fort Collins-Loveland, CO","CBSATYPE":"1","CSA":"N","NMCSA":"N","CD":"0804","SLDL":"08051","SLDU":"08015","SCHOOLYEAR":"2024-2025"}},{"type":"Feature","id":17151,"geometry":{"type":"Point","coordinates":[-104.98939599983701,40.568596999871893]},"properties":{"OBJECTID":17151,"NCESSCH":"080399006866","LEAID":"0803990","NAME":"Timnath Middle-High School","OPSTFIPS":"08","STREET":"4700 EAST PROSPECT ROAD","CITY":"TIMNATH","STATE":"CO","ZIP":"80535","STFIP":"08","CNTY":"08069","NMCNTY":"Larimer County","LOCALE":"41","LAT":40.568596999999997,"LON":-104.989396,"CBSA":"22660","NMCBSA":"Fort Collins-Loveland, CO","CBSATYPE":"1","CSA":"N","NMCSA":"N","CD":"0802","SLDL":"08052","SLDU":"08023","SCHOOLYEAR":"2024-2025"}}]}