{"type":"FeatureCollection","crs":{"type":"name","properties":{"name":"EPSG:4326"}},"features":[{"type":"Feature","id":1,"geometry":{"type":"Polygon","coordinates":[[[-106.186017817084,40.9976221937104],[-106.184718575967,40.997617050564],[-106.184718523676,40.9976170508699],[-106.176465791216,40.9975840451967],[-106.162537590385,40.9975676952655],[-106.162537180338,40.9975676939849],[-106.160344841673,40.9975649697313],[-106.16003426099,40.9975605067164],[-106.149495816976,40.9974085663797],[-106.133485319897,40.9973795598499],[-106.128675149504,40.9973704175794],[-106.124990143471,40.9973818612289],[-106.123578057779,40.9973519084405],[-106.120137835709,40.9972788636105],[-106.089303748708,40.9972569450781],[-106.088155338302,40.9972559720289],[-106.087873240665,40.9972538172327],[-106.060605527939,40.9970423466137],[-106.036557619353,40.9971262663713],[-106.016057385936,40.997263593144],[-106.013425240081,40.9972407057819],[-106.007878656854,40.9972788518203],[-106.001281518719,40.9972916480072],[-106.001281479501,40.9972916481751],[-105.999989844834,40.9972941097938],[-105.862208576774,40.9970709666206],[-105.859616276291,40.9970652134379],[-105.849480115501,40.9970791399387],[-105.84259505635,40.9970880992089],[-105.808008720107,40.9970396797593],[-105.80800856917,40.9970396792561],[-105.749989244913,40.9969355015341],[-105.741622185275,40.9969459531472],[-105.741622137736,40.9969459532454],[-105.740803431309,40.9969469436037],[-105.739965107939,40.9969452275478],[-105.729855223563,40.996924055835],[-105.719971068946,40.9969593151564],[-105.719151157699,40.9969622020948],[-105.71475884955,40.996972001639],[-105.696102700768,40.9970117900124],[-105.692479941592,40.997031256271],[-105.681057499948,40.997091897368],[-105.635403094091,40.9971681869276],[-105.634471379189,40.9971656422755],[-105.628483215163,40.9971491118174],[-105.625256220807,40.997184344427],[-105.624988945298,40.9971872585017],[-105.583974741983,40.9973459104125],[-105.499988644068,40.9976259358963],[-105.471958182366,40.9976869675288],[-105.460407251764,40.9976869659875],[-105.448863949836,40.9977174823071],[-105.446033438044,40.997759444458],[-105.443042708693,40.9977823315295],[-105.434291770668,40.9977823306738],[-105.411670561975,40.9978395489526],[-105.37498834447,40.9979196533977],[-105.362712620844,40.9979082083695],[-105.343082141407,40.9979844998693],[-105.340602581453,40.9980073886018],[-105.276591807949,40.9982057463998],[-105.25597713509,40.9982248169596],[-105.249988046529,40.998289666128],[-105.249988045506,40.9983499814135],[-105.24998804533,40.9984269951687],[-105.248248538645,40.9984765863549],[-105.199632833127,40.9984171206713],[-105.158305391112,40.9983506908967],[-105.156596402365,40.9983049130553],[-105.154513574599,40.998282025494],[-105.081979472489,40.9983728643496],[-105.077075034235,40.9983773841703],[-105.076507337634,40.9983679280594],[-105.074328443684,40.9983316069969],[-105.038380596254,40.998326430767],[-104.99998744618,40.9983087097229],[-104.993236827342,40.9982967156451],[-104.993236498131,40.9982967151201],[-104.962038747174,40.9982362256601],[-104.960924852141,40.9982591141886],[-104.9473676127,40.9982507988266],[-104.943314674802,40.9983183289596],[-104.943310446277,40.9935825635641],[-104.94327946076,40.9574317916849],[-104.942861447898,40.9575234643592],[-104.943076685061,40.9140633372751],[-104.943148666928,40.8995767012178],[-104.943220623789,40.8850899808084],[-104.94329253658,40.8706031894963],[-104.943359311201,40.8272219297353],[-104.943392210719,40.8055313956224],[-104.943425993018,40.7838406990619],[-104.943499476066,40.7549319023355],[-104.943518514938,40.7477045809402],[-104.943537541532,40.7404772317097],[-104.943662324316,40.7258966520805],[-104.943787048924,40.7113156587775],[-104.943848950023,40.7040253055259],[-104.943911732218,40.6967349390376],[-104.942317522522,40.6967578580015],[-104.942586593082,40.6891775025075],[-104.942838212468,40.6820664283732],[-104.942991409863,40.677814889139],[-104.94308978052,40.6749549924663],[-104.943341293963,40.6678438801967],[-104.943444575401,40.6532357558038],[-104.943444580549,40.6532354181212],[-104.943820715515,40.6396774222881],[-104.943941933295,40.6315699134401],[-104.944084569076,40.6243065873638],[-104.944164066535,40.6098264467806],[-104.944165145884,40.595353468591],[-104.94415170092,40.5881215196564],[-104.944137351678,40.5808895582366],[-104.944125416801,40.5663584122887],[-104.944138324077,40.5590956593964],[-104.944152134172,40.5518328895214],[-104.944165933008,40.5445701092175],[-104.944179731302,40.5373073078463],[-104.944172800651,40.530049552131],[-104.944265153767,40.5227727383856],[-104.944212581334,40.50823633356],[-104.944176636675,40.5010078902969],[-104.944141575779,40.4937796254923],[-104.944141541268,40.4864516359906],[-104.944139517472,40.4792541848043],[-104.944144876698,40.4648071551031],[-104.944170813601,40.4575954447252],[-104.944220556374,40.457595014641],[-104.953677599414,40.4575128146123],[-104.963157498567,40.4575303522641],[-104.972680812323,40.4575112692577],[-104.982319229833,40.4575937083582],[-104.991869898682,40.4576379656537],[-105.001471891186,40.4575468041538],[-105.010932274054,40.4579027250877],[-105.01858387527,40.4581915239423],[-105.020331448005,40.4582573992815],[-105.020438543182,40.4582614351151],[-105.020998356606,40.4582624504061],[-105.029919801703,40.4582782712417],[-105.029919794272,40.458279342018],[-105.029919646504,40.4583013132144],[-105.029870046194,40.4656515597082],[-105.029588405169,40.4729601359651],[-105.039466993083,40.4729323843915],[-105.039356243915,40.4894019727234],[-105.039315894449,40.4947466264287],[-105.039339608336,40.4947469141068],[-105.04880362031,40.4946387319699],[-105.058207706869,40.4945307649041],[-105.063239307209,40.4946518131619],[-105.067921492804,40.4947642592129],[-105.077395655117,40.4948028950106],[-105.077397125121,40.4948028706397],[-105.078735798145,40.4947803035239],[-105.08660583911,40.4946473191006],[-105.087522273257,40.4946321332086],[-105.090726876078,40.4945789757186],[-105.093957117306,40.4945253034279],[-105.094211867022,40.4945210666842],[-105.096272633095,40.4944867742709],[-105.105937754365,40.4944516810672],[-105.109034317265,40.4944403062493],[-105.115619051102,40.4944158434935],[-105.115766693628,40.4944149748174],[-105.125174596293,40.4943592308487],[-105.129810769023,40.4943605889285],[-105.134711823905,40.494361822597],[-105.134705972412,40.4935703084823],[-105.134658825938,40.4871924600248],[-105.134546682272,40.4798276582562],[-105.134968418961,40.4726132076803],[-105.134968434409,40.47261274843],[-105.13520759184,40.4726125634253],[-105.143991333135,40.4726054137953],[-105.153358404752,40.472597057844],[-105.162676448021,40.4726893438734],[-105.173463661454,40.4727949798392],[-105.182820079683,40.4728802932821],[-105.182868938809,40.47288212794],[-105.182570367372,40.4801392750504],[-105.182337868129,40.4871783607174],[-105.182101533959,40.4942596218426],[-105.181836752569,40.5014529925827],[-105.181572984659,40.5086103215717],[-105.18188364784,40.5159750827128],[-105.182167391926,40.5226826010881],[-105.182167664851,40.5226890670479],[-105.182167685078,40.5226895345005],[-105.182193643575,40.5233031081669],[-105.182153593061,40.525622820364],[-105.182071382334,40.5303839353004],[-105.182014398971,40.533678040332],[-105.181949172949,40.5374482754302],[-105.181990043844,40.5446437697834],[-105.182029117189,40.5515215222236],[-105.182030917166,40.5518385750627],[-105.182011219327,40.5531946699424],[-105.181927161609,40.5589809390837],[-105.188636175121,40.558989584486],[-105.188636228259,40.5589895837277],[-105.188933005975,40.5589899575761],[-105.191603001934,40.5589932836587],[-105.201047732272,40.5589757486284],[-105.210312516625,40.5589580311032],[-105.210252792781,40.5661790764202],[-105.210292216668,40.5733588461173],[-105.219710846318,40.5733901609885],[-105.229039473768,40.5734208491445],[-105.229127488119,40.5806569726341],[-105.229224621897,40.5876409148607],[-105.229320881416,40.5946248477586],[-105.238852303988,40.5946545273483],[-105.247007281579,40.5947378463295],[-105.248236757952,40.5947503585983],[-105.257740658446,40.5946796141313],[-105.267184958301,40.594658755256],[-105.27639086536,40.5943086570007],[-105.280161175948,40.5941473067755],[-105.280416845687,40.594136360758],[-105.286223455268,40.5938876140315],[-105.295852095683,40.5938884412233],[-105.305455377145,40.5938727612139],[-105.3056749471,40.5504451873943],[-105.324614506465,40.5505905916784],[-105.343435705732,40.5506006537243],[-105.36309055486,40.5498702629666],[-105.382660884118,40.5499074530014],[-105.402244170844,40.5488566402337],[-105.40259014979,40.5488379153097],[-105.402612902639,40.5488366834935],[-105.403363602576,40.5341833627583],[-105.403364365101,40.5341684662455],[-105.405857645966,40.5341337948042],[-105.412739208645,40.5340378230262],[-105.42040514273,40.5338436023238],[-105.423182757096,40.5337731047448],[-105.432615965655,40.5338179478649],[-105.433797732872,40.5339361633696],[-105.442030807276,40.5347593928244],[-105.445055637199,40.5348963602585],[-105.451455033308,40.5351858690507],[-105.460879341457,40.5356115801269],[-105.469141626257,40.535409840374],[-105.4702570477,40.5353825604174],[-105.479634726949,40.5351527552353],[-105.489034405028,40.5350698195824],[-105.498434058775,40.5349861228232],[-105.506916059142,40.534796984838],[-105.506916098093,40.5347969839352],[-105.5078374246,40.5347764025122],[-105.517416334384,40.5345620020696],[-105.527011699686,40.5348286030766],[-105.536607140496,40.5350944100669],[-105.537832641457,40.5351470599688],[-105.538014081641,40.5351548536898],[-105.545796856115,40.5354926194991],[-105.554921132699,40.5358879601924],[-105.564043203407,40.5361266332942],[-105.56524331438,40.5361579835886],[-105.566574588937,40.536193232334],[-105.569139405186,40.5362541215298],[-105.569139872623,40.5362541329591],[-105.574492354715,40.5363810185212],[-105.583589114577,40.5366041736432],[-105.59268596619,40.536826591525],[-105.593826433604,40.5368602401343],[-105.60214487012,40.5370760549282],[-105.611828501818,40.5373876351351],[-105.621413492344,40.5375998080098],[-105.631639995341,40.5378325385346],[-105.641351113973,40.5379342640674],[-105.651058611382,40.5380397046942],[-105.660792637856,40.5381453722592],[-105.670528525688,40.538251265676],[-105.680231543754,40.53834974211],[-105.689785068877,40.5384402122821],[-105.699368308446,40.5385308846266],[-105.708949782626,40.5386214400615],[-105.709717482612,40.5386241009619],[-105.718528392938,40.5386542727746],[-105.71998190892,40.538659341505],[-105.720029361997,40.5386595065444],[-105.728107015879,40.5386873373408],[-105.737670525826,40.5387673329538],[-105.747217871451,40.5388469228182],[-105.754335834366,40.538489945939],[-105.754305955992,40.5384444543226],[-105.754171255089,40.5382393629016],[-105.754167987405,40.5382279661643],[-105.754150126568,40.5381666603803],[-105.753632123881,40.5363366869959],[-105.753082592147,40.5350435825359],[-105.753072908306,40.5350207949376],[-105.752472889044,40.5343798066829],[-105.752383897558,40.5332578226094],[-105.752144890891,40.5327088307487],[-105.75211489528,40.5322288360559],[-105.752115024478,40.5322286655682],[-105.752445913955,40.5317938407862],[-105.752565922838,40.531450844293],[-105.752565396597,40.531449940365],[-105.752520742354,40.5313732882249],[-105.752445919311,40.5312448486504],[-105.75220591086,40.5311298510783],[-105.750551842251,40.530968862493],[-105.750148824294,40.5309228614537],[-105.749855816077,40.530373868262],[-105.749825820219,40.5298248765267],[-105.749434806272,40.5293208816838],[-105.749224805415,40.5284748925582],[-105.748623787783,40.5275599027141],[-105.748082775794,40.5263699176852],[-105.748082969324,40.5263679801463],[-105.748201792275,40.5251799340544],[-105.748201579757,40.5251795886894],[-105.747751780145,40.5244479427812],[-105.74769078704,40.5233959571229],[-105.74759978706,40.523006961383],[-105.747329779796,40.5225259661366],[-105.746609752034,40.5219319733159],[-105.745499709185,40.5212689793554],[-105.745259701064,40.5210169822907],[-105.745229703747,40.5207879862622],[-105.744898695247,40.5200559950014],[-105.743008621843,40.5187530081336],[-105.742708612322,40.5183870116239],[-105.742407611258,40.5171740259915],[-105.742407987073,40.5171731948802],[-105.742707631095,40.5165110353706],[-105.742707139033,40.5165097215634],[-105.742647630144,40.5163510380898],[-105.742167612834,40.5159390417074],[-105.742076610994,40.5157100447457],[-105.741836601437,40.5155730460914],[-105.741387582414,40.5155500452989],[-105.741237575444,40.5156190434811],[-105.740487540738,40.5154360449573],[-105.739737516648,40.5145210555437],[-105.73892748657,40.5139500618283],[-105.737727439077,40.5133320658883],[-105.737247420885,40.5129660700331],[-105.737097417566,40.5126230734384],[-105.737097409222,40.5126206914406],[-105.737097418112,40.5118680836489],[-105.737696457029,40.5113650910169],[-105.737995477156,40.5109300973652],[-105.738145492531,40.5101291092455],[-105.73814525714,40.5101279362809],[-105.737934492769,40.5090761219324],[-105.73784251191,40.5068111510776],[-105.73760152811,40.5043631816738],[-105.737300525995,40.5030581968175],[-105.737210523661,40.503013197891],[-105.737030524459,40.5020982091885],[-105.736940522438,40.5020522095053],[-105.736940514097,40.5020498266006],[-105.736939523328,40.5015942132495],[-105.736070496353,40.5007482232983],[-105.735679487421,40.5000002320096],[-105.735680110961,40.4999990599964],[-105.735861497279,40.499658234659],[-105.735860670883,40.4996573897959],[-105.735771492446,40.4995662344551],[-105.735710492053,40.4991752355405],[-105.73571082403,40.4991750331379],[-105.736310521804,40.4988092391253],[-105.736399529402,40.4980992421223],[-105.736758546246,40.4978242441053],[-105.736908556258,40.497481244743],[-105.73690808681,40.4974799164502],[-105.736698550027,40.4968862470227],[-105.736698640588,40.4968841439926],[-105.736757559558,40.4955132529829],[-105.736757457371,40.4955130424562],[-105.736426549487,40.4948272537445],[-105.736426541164,40.4948248708356],[-105.736426542607,40.4943922562805],[-105.736666564388,40.4938892591007],[-105.736666095837,40.4938878416468],[-105.736575563302,40.4936142596928],[-105.736545564917,40.4930192618129],[-105.736545668169,40.493019103101],[-105.737114595083,40.4921492661021],[-105.73711458674,40.4921468840921],[-105.737113593807,40.4910742704849],[-105.737681637175,40.4891742790329],[-105.737709326874,40.489120800078],[-105.738140953171,40.48828715491],[-105.738309671998,40.4879612858353],[-105.73833967584,40.4874352874238],[-105.738339556365,40.4874348544909],[-105.738219672052,40.4870002894757],[-105.738129668727,40.4869782901],[-105.73788966075,40.4864062904818],[-105.737619652366,40.4860172916355],[-105.737019626798,40.4856512914601],[-105.737019752027,40.4856489911264],[-105.737049631065,40.4851022941185],[-105.737498655508,40.4845072972296],[-105.737498263248,40.4845054230263],[-105.737407653452,40.4840722991782],[-105.737197644059,40.4838202995698],[-105.736148600986,40.4830662994203],[-105.736148783042,40.4830640530055],[-105.73623761351,40.4819673043324],[-105.736237441238,40.4819669444511],[-105.736117608186,40.4817163047025],[-105.735248571973,40.4811443045895],[-105.735008564229,40.4808693049995],[-105.734858559746,40.4803893067455],[-105.734827563315,40.4795423091572],[-105.734737560582,40.4793363105242],[-105.733298499744,40.4783763111207],[-105.733058492702,40.4780333108351],[-105.732908489862,40.4771183149973],[-105.732518475963,40.4766373148183],[-105.731948452204,40.4761573151008],[-105.731948444041,40.4761549321806],[-105.731948446634,40.4758823164847],[-105.732098461708,40.4757223176495],[-105.732547482417,40.4756073193068],[-105.732667489128,40.4754933202447],[-105.732666679267,40.4754916990207],[-105.732427480494,40.4750133211724],[-105.732397481322,40.4746693223537],[-105.732397664651,40.4746691355665],[-105.732666495016,40.4743953240063],[-105.732696498223,40.4741433254156],[-105.732696231004,40.4741431215192],[-105.732066473614,40.4736633255746],[-105.73182647084,40.4721753294634],[-105.73182671087,40.472174483338],[-105.731975478989,40.4716493326607],[-105.733772567082,40.4703903416857],[-105.734191589465,40.4696343457057],[-105.734460602057,40.4694513475512],[-105.73730673299,40.468992356421],[-105.738744795157,40.4691983587952],[-105.740153856908,40.4693113632851],[-105.740872889906,40.4692883652459],[-105.741531917862,40.4695633660318],[-105.742520963025,40.4694253677963],[-105.743420001425,40.469722369972],[-105.744348042674,40.469790371605],[-105.744858066478,40.4696303740856],[-105.746145126616,40.4689423796528],[-105.748002213144,40.4682553871709],[-105.749231269099,40.4682093896757],[-105.750009304603,40.4678883936757],[-105.750031086605,40.4678833395298],[-105.750552331494,40.4677623951149],[-105.751276116502,40.4677307154727],[-105.751306362179,40.4677293918971],[-105.75241541555,40.4667233915163],[-105.752565423182,40.4664023927871],[-105.752566305077,40.4663957229494],[-105.752686434749,40.4654873951373],[-105.752835350835,40.4651012320979],[-105.752836443915,40.4650983964813],[-105.754365518045,40.4634513963838],[-105.754605529494,40.4631083961631],[-105.754608112977,40.4631018315432],[-105.754875545535,40.4624223978665],[-105.755380690269,40.4618558721056],[-105.755385571041,40.4618503984239],[-105.756644630218,40.461004395624],[-105.757304662764,40.4603413957185],[-105.758503719525,40.459334394248],[-105.758530791753,40.4593036384212],[-105.759972791176,40.4576653957087],[-105.760501880069,40.4572384146137],[-105.760511816445,40.4572303960168],[-105.760572821942,40.4568183969801],[-105.761650871677,40.4563613943035],[-105.76296993226,40.4552183935114],[-105.763281748672,40.4548551755966],[-105.763539960997,40.4545543936774],[-105.763799087406,40.4543781196378],[-105.763808974956,40.4543713941043],[-105.764858020869,40.4541663905091],[-105.765308042671,40.4538003903078],[-105.767106130795,40.4516733929871],[-105.767112236127,40.4516670694259],[-105.767526150446,40.4512383923229],[-105.768057341315,40.4510580518014],[-105.768065176278,40.4510553913854],[-105.768694205186,40.4506213904091],[-105.769443238348,40.450598387667],[-105.769803255131,40.4504613862264],[-105.769814602409,40.4504499917374],[-105.770282277505,40.4499803866428],[-105.77068192539,40.4497617239518],[-105.770691613229,40.4497540364599],[-105.771660330666,40.4492240020129],[-105.773518421807,40.4473250033293],[-105.774267455327,40.4471420014846],[-105.775286502435,40.4464790004007],[-105.77753260058,40.446021993817],[-105.778491645854,40.4453589942861],[-105.779060670684,40.445312991703],[-105.77959969561,40.4451069906648],[-105.780199723424,40.4446269906074],[-105.780977758904,40.4444439886849],[-105.781444618529,40.4435501369827],[-105.782086807583,40.4439869856299],[-105.785201950881,40.4423859825857],[-105.787059037463,40.4411279806962],[-105.78792807595,40.4407849790493],[-105.791642250998,40.4382229793864],[-105.793260325714,40.4372389773004],[-105.795510536122,40.435603295884],[-105.797936878458,40.433637613002],[-105.79988400839,40.431871836792],[-105.801180006085,40.4305647136109],[-105.801795743259,40.4298283690319],[-105.802998835717,40.4287301607216],[-105.80302380285,40.4287073699637],[-105.80338282049,40.4281123728215],[-105.803802844234,40.4271283755377],[-105.804311869972,40.4265103766238],[-105.805838942791,40.4252523787864],[-105.806115956094,40.4248093793144],[-105.806227962747,40.4245663818297],[-105.806131577029,40.4241581718057],[-105.806108960596,40.4240623839616],[-105.806136554779,40.4239515894352],[-105.808201771757,40.415658330948],[-105.810551630623,40.4194310756758],[-105.81122301741,40.4198545079224],[-105.811419395779,40.4199132257278],[-105.811419437078,40.4199132382253],[-105.8127412721,40.4203084572012],[-105.812981445345,40.4204521118975],[-105.814763065916,40.4215177185789],[-105.815213201382,40.4221089987299],[-105.815548893775,40.4235700303932],[-105.815846441714,40.4240239804394],[-105.816418647728,40.4241613101814],[-105.816693255583,40.4243558224455],[-105.816693307605,40.4243558592278],[-105.816655158985,40.4265226125235],[-105.816014289227,40.4268926385787],[-105.815579412269,40.4270070807859],[-105.815434454178,40.4275563975625],[-105.815425671948,40.4275596464615],[-105.814969050249,40.4277285971429],[-105.814671511341,40.427838686016],[-105.813878052503,40.4285558503368],[-105.813733334743,40.4294926992421],[-105.813733092156,40.42949426693],[-105.81412170751,40.4307439312422],[-105.814122193228,40.4307454915554],[-105.813764068014,40.4313664951643],[-105.813763610874,40.4313672880214],[-105.81398486365,40.4321187862199],[-105.814854617559,40.4340032500299],[-105.815792531761,40.4355511906314],[-105.815793034185,40.4355520205106],[-105.815472597569,40.4365629165761],[-105.815205568504,40.4374670030941],[-105.813763609744,40.4381612786945],[-105.812443720943,40.4391950636838],[-105.811833367185,40.4406637254926],[-105.81148241524,40.4423612688458],[-105.811154350387,40.4428876991095],[-105.809826831072,40.4432653538245],[-105.808781602213,40.444154180273],[-105.807240461598,40.4450735241652],[-105.805981608289,40.4462370088408],[-105.805195777432,40.4473661616034],[-105.80511212445,40.4479137001129],[-105.805111853081,40.4479154794895],[-105.805584876837,40.448926377259],[-105.805890052546,40.4498152028738],[-105.806652993526,40.4506963997015],[-105.806912394984,40.4513906765705],[-105.807041840127,40.4522929875205],[-105.807042094558,40.4522947610061],[-105.805188423379,40.4569213080937],[-105.80518814707,40.4569219986698],[-105.8053556777,40.4579081466618],[-105.80535599381,40.4579100073434],[-105.804562534899,40.459268042976],[-105.804280245633,40.4614882016387],[-105.80392181533,40.4627694008624],[-105.8039216633,40.4627699425125],[-105.803875886141,40.4629988246328],[-105.803906403015,40.4642576778795],[-105.805111850728,40.466535056597],[-105.806584326867,40.4679693857315],[-105.807606668024,40.4689001728715],[-105.808441564175,40.4694057534916],[-105.808979962671,40.4697317799322],[-105.80943083318,40.4700243129719],[-105.810261092537,40.4705629910778],[-105.81026170283,40.4705633866046],[-105.810475326744,40.4709753750522],[-105.810093855777,40.4711203330268],[-105.808285685202,40.4711127027405],[-105.807743995976,40.4714751001035],[-105.807286231752,40.4722761885999],[-105.806553808089,40.4724440346365],[-105.806134388115,40.4731151061238],[-105.806134190249,40.4731154227503],[-105.806218114073,40.4739470290581],[-105.806767430873,40.4745611963385],[-105.80796524993,40.475095256079],[-105.80903336567,40.4753546547114],[-105.810475325215,40.475804791342],[-105.81221483091,40.4758887141112],[-105.813420278842,40.4757208680424],[-105.814846979415,40.4753737294882],[-105.819539067269,40.4760069713992],[-105.821537973688,40.4767546539355],[-105.822049145412,40.4769148714013],[-105.823559768398,40.4774603746617],[-105.826870932777,40.4781355771875],[-105.829587003779,40.479451651257],[-105.832005528315,40.479890342526],[-105.833691628942,40.4797682727498],[-105.834591898097,40.4804625481808],[-105.836247481238,40.4823927902863],[-105.836995162123,40.4830260309593],[-105.838627858032,40.4830031430823],[-105.838690755731,40.4830239315329],[-105.83952812815,40.4833006895414],[-105.840280322448,40.4836093745191],[-105.840336844201,40.4836325700056],[-105.840931938485,40.483396057037],[-105.842373898691,40.4829955134874],[-105.845044193472,40.4826483761381],[-105.846386969459,40.4827933343466],[-105.846470894041,40.48318243484],[-105.846730293153,40.4839644490927],[-105.854352076258,40.4862876067351],[-105.855244716846,40.4877715270424],[-105.855420193862,40.4888701624204],[-105.855526891718,40.4904439656246],[-105.855527005467,40.4904456349549],[-105.855522898754,40.4904722498085],[-105.855328639624,40.4917311908517],[-105.855209091011,40.4926950443254],[-105.855206568368,40.4927153844617],[-105.854626734489,40.4943976700695],[-105.854191857266,40.4951415374672],[-105.852887227628,40.4959807724452],[-105.852101397203,40.4967322688431],[-105.851452898702,40.4976020218216],[-105.851216592387,40.4985053201821],[-105.851216386485,40.4985061079113],[-105.851353554456,40.4995082111292],[-105.851353713858,40.4995093741958],[-105.851292678908,40.5000167300175],[-105.851178474514,40.5005078163227],[-105.85117823909,40.5005088274844],[-105.851269790987,40.5010161837698],[-105.8514300074,40.5022140006484],[-105.851719920105,40.5035681907832],[-105.851719920259,40.5035682205018],[-105.851727542053,40.5065870852947],[-105.851727554436,40.5065894681863],[-105.852040360337,40.5070319733768],[-105.853001665718,40.5074363328099],[-105.854153707032,40.5078254325843],[-105.855237084754,40.5078902824703],[-105.855552693719,40.5078620438926],[-105.855961878306,40.5078254323923],[-105.856456152029,40.5078872176093],[-105.856480679018,40.5078902835676],[-105.856484917316,40.5078952435533],[-105.856839261307,40.5083099002494],[-105.857065436822,40.5088979606957],[-105.857068142862,40.5089049948958],[-105.857625089797,40.5096641212515],[-105.858594026558,40.5104385058438],[-105.858753777115,40.510557240994],[-105.859440889657,40.5110679329592],[-105.860004764619,40.5115497249947],[-105.860043612707,40.5115829178621],[-105.860219090922,40.5125823701639],[-105.860768406209,40.5135818235117],[-105.86132535373,40.514482095049],[-105.86253080244,40.5155540263853],[-105.862898567372,40.5156625847237],[-105.863164042032,40.5157409474357],[-105.863658398656,40.5159917075785],[-105.86369047177,40.5160079760646],[-105.864201641809,40.5165420358587],[-105.864743330791,40.5168395828219],[-105.864795670137,40.5168599372357],[-105.865361312178,40.5170799088303],[-105.865752388012,40.5172754453228],[-105.865788560926,40.5172935320941],[-105.866231066956,40.5187888962638],[-105.866932972197,40.5197502032378],[-105.868512260142,40.5207725440529],[-105.869877924785,40.5213142328206],[-105.871228330025,40.5217834417643],[-105.872014159798,40.5218902530342],[-105.872873339055,40.5218646498139],[-105.873166200376,40.5218559206128],[-105.874005437572,40.5218978828902],[-105.874364598553,40.5219589407812],[-105.874386907414,40.5219627332753],[-105.87498963179,40.5222526500573],[-105.876126413394,40.5224472007605],[-105.877469191148,40.5225006059411],[-105.878461014122,40.52321014292],[-105.879506244093,40.523305509108],[-105.881375449679,40.5228858929613],[-105.881398227158,40.5228669646563],[-105.881917138249,40.5224357569499],[-105.882306238626,40.5220886194826],[-105.882593449202,40.5219992907923],[-105.8826289464,40.5219882508288],[-105.883275173107,40.5217872577796],[-105.883796836158,40.5217187339433],[-105.886616367913,40.5213483254977],[-105.887166174761,40.5212760878563],[-105.890263648085,40.5210578595623],[-105.890523116509,40.5210395751852],[-105.893994498679,40.5202308599454],[-105.898533998382,40.5182586565614],[-105.903592299913,40.5144782842315],[-105.903927995186,40.5141540351527],[-105.903951614578,40.5141610649048],[-105.904248430156,40.5142494014803],[-105.905209513987,40.5146620308083],[-105.906407553758,40.5151763760549],[-105.907277306395,40.5155273289964],[-105.907285941604,40.5155380876553],[-105.90774269975,40.5161071640893],[-105.90793751624,40.5165280418011],[-105.908147060409,40.5169807316684],[-105.908229930361,40.5171065673923],[-105.90959664723,40.5191818167114],[-105.909827863083,40.5195784010872],[-105.909846600444,40.5196105396499],[-105.910199370046,40.5202156022887],[-105.910681208315,40.5214578388483],[-105.910687418509,40.5214738498738],[-105.910687653481,40.5214744542312],[-105.910596100925,40.5222145072297],[-105.9098484181,40.5229354873523],[-105.909843462895,40.5229396168627],[-105.909184658117,40.523488619225],[-105.909052579728,40.5237074560348],[-105.908795557413,40.5241333047078],[-105.908208094346,40.525022129492],[-105.90729256348,40.5262466508797],[-105.907270026488,40.5262939362507],[-105.906514363296,40.5278793446753],[-105.905842974226,40.5293708942018],[-105.905356250115,40.5305139599371],[-105.905339432872,40.5305534529613],[-105.905080033745,40.5328651639568],[-105.904515609192,40.535317352766],[-105.904515456192,40.535318019723],[-105.904584120268,40.5360199254722],[-105.904957961612,40.5370537109861],[-105.905858232131,40.5387741424211],[-105.906209184541,40.5398308156149],[-105.906575397863,40.5406128306724],[-105.906583010311,40.5416671220795],[-105.906583024627,40.5416695040429],[-105.906468780849,40.5429223795854],[-105.906468583717,40.5429245425478],[-105.907262043397,40.5437447041449],[-105.908208090837,40.5445190896529],[-105.909000340145,40.5450180546103],[-105.90900154889,40.545018815843],[-105.908650581754,40.5454956546065],[-105.908650580985,40.5462371399938],[-105.90865059538,40.5462395228547],[-105.908970944175,40.5467925032612],[-105.908971031264,40.5467926533502],[-105.908932955931,40.5479653568075],[-105.908932883208,40.5479675832744],[-105.908943335788,40.5479841323164],[-105.909390647888,40.5486923778125],[-105.90983552083,40.549598017129],[-105.909869290844,40.5496667628903],[-105.91003151957,40.5499970063339],[-105.910597277741,40.5512219103457],[-105.910597305256,40.5512219696861],[-105.910694779233,40.5514330026817],[-105.910817347869,40.5516983647526],[-105.911202260165,40.552606627257],[-105.911252223658,40.5527245215264],[-105.911297886676,40.5536187544671],[-105.911298000553,40.5536209775705],[-105.910680016707,40.5546166155383],[-105.910676576905,40.5546307405111],[-105.910428246979,40.5556503998541],[-105.910240117123,40.5567340240911],[-105.910237511372,40.5567490349606],[-105.910207206861,40.5568171177201],[-105.909680565156,40.5580002586202],[-105.909355925613,40.558797427975],[-105.909337403001,40.5588429097466],[-105.909337241286,40.5588433083671],[-105.909497308388,40.5606421759842],[-105.909497457857,40.5606438496134],[-105.909207752577,40.5621686155879],[-105.90920754088,40.562169732136],[-105.9095127162,40.5638749047975],[-105.910069662861,40.5647675462095],[-105.910313803007,40.5664574609962],[-105.910878380264,40.567262364051],[-105.911839686115,40.5681092283598],[-105.912633144057,40.5683495547624],[-105.912647589265,40.5683698689033],[-105.913365567598,40.5693795252669],[-105.914098509117,40.5706472141165],[-105.914113250353,40.5706727106674],[-105.914456573336,40.5707604481005],[-105.915158480474,40.5706383789038],[-105.915218747586,40.5706373180937],[-105.916241856998,40.570619304479],[-105.917037163822,40.5706771819242],[-105.917866921358,40.5707375606949],[-105.919232587561,40.5714509112408],[-105.920666915321,40.5725953222961],[-105.921689192006,40.5742736884226],[-105.921689256438,40.5742737935551],[-105.92180369853,40.5748154817336],[-105.921666815205,40.5753363929694],[-105.921666367578,40.57533809666],[-105.922169909216,40.5761773315152],[-105.922848926212,40.5770737865221],[-105.923283803035,40.578218198742],[-105.923520314205,40.5793320919056],[-105.923993336881,40.5802743240833],[-105.924397183187,40.5809677206229],[-105.924397696614,40.5809686013016],[-105.924115407515,40.5818192802327],[-105.923810425883,40.5821814485017],[-105.923810232427,40.5821816779497],[-105.923917044924,40.583287942048],[-105.924733390707,40.5853631419963],[-105.924736225528,40.5853753396695],[-105.925175894846,40.5872666800682],[-105.925198637435,40.587740462741],[-105.925198784229,40.5877435178109],[-105.925208896428,40.5877610562111],[-105.92604564806,40.5892121800642],[-105.925961857827,40.5906213720476],[-105.925961724328,40.5906236203373],[-105.925987902728,40.5906450154634],[-105.926358454931,40.5909478701226],[-105.926602906907,40.5912033249001],[-105.927121395382,40.5917451440776],[-105.927472086559,40.5930602362994],[-105.927472347937,40.59306121695],[-105.927388657182,40.5935367404125],[-105.927388425681,40.5935380560815],[-105.927498625388,40.5940146771592],[-105.927541011796,40.5941979988657],[-105.927129025577,40.5949571266974],[-105.927068087281,40.5955550738078],[-105.927067989389,40.5955560350647],[-105.927121395241,40.5962274234881],[-105.92725109473,40.5968988116606],[-105.927411311625,40.5971887283726],[-105.927640085569,40.5983402147797],[-105.927640195414,40.5983407700211],[-105.927548752992,40.6000933889293],[-105.927548641326,40.600095534471],[-105.927998776498,40.6009347698473],[-105.928418393299,40.6012399466601],[-105.928479217461,40.6018025718022],[-105.928479428324,40.601804522536],[-105.928242988457,40.6023269794612],[-105.928242917378,40.60232713642],[-105.92828106534,40.6033151461854],[-105.928372617237,40.6038301309899],[-105.928863862416,40.6045520258057],[-105.928998228141,40.6047494748566],[-105.929240768285,40.605556959647],[-105.929311033445,40.6057908895029],[-105.929631470744,40.606225766547],[-105.930569887032,40.6061113245195],[-105.932400945991,40.6064126875891],[-105.934132824079,40.6064660938479],[-105.934796582684,40.6068208610728],[-105.936436905419,40.6079805309672],[-105.938100117168,40.6088464692108],[-105.938618917217,40.608861728777],[-105.939420005493,40.6087472873697],[-105.941487576952,40.6091134998501],[-105.941508948692,40.6091339937894],[-105.942044523453,40.6096475581604],[-105.9426441637,40.6103482210167],[-105.943471222066,40.6113145853034],[-105.94395950445,40.6121271166227],[-105.944157872692,40.6132333813681],[-105.944165482668,40.6142647837692],[-105.94517256605,40.6151612401241],[-105.945600185765,40.6156241713912],[-105.945619718251,40.6156476830521],[-105.946004186916,40.6160638923961],[-105.946148509646,40.6162841770378],[-105.946438996409,40.6167275502242],[-105.946439063266,40.6167276526311],[-105.94642380476,40.6174028549773],[-105.946095739948,40.6181543513477],[-105.945740268445,40.6186939113869],[-105.945454869845,40.619127101339],[-105.945357632643,40.6193718715192],[-105.945233616468,40.6196840488243],[-105.944995045212,40.6201307863855],[-105.94484451489,40.6204126573533],[-105.944644918503,40.6209335597508],[-105.944635458265,40.6209582485753],[-105.94453171007,40.6212290039748],[-105.944489567841,40.6215345321204],[-105.944489010587,40.6215385741355],[-105.94444015589,40.6218927632042],[-105.944913180521,40.6227777737329],[-105.945397908706,40.6229981069782],[-105.945836339716,40.6231973931193],[-105.946084637814,40.6233830157031],[-105.946108836165,40.6234011060309],[-105.946622167777,40.6237848569991],[-105.946726125499,40.6239896059604],[-105.947247780942,40.6250170064081],[-105.947606363839,40.6256578773704],[-105.948254861976,40.6266306275443],[-105.94868211016,40.6273554213825],[-105.94878105525,40.6281203549893],[-105.948781290752,40.6281221777008],[-105.948537150974,40.6287439734059],[-105.948369303528,40.6293428824295],[-105.948163769234,40.6299817100113],[-105.948087015548,40.6302202655479],[-105.94808701434,40.630607167093],[-105.948086998652,40.6306072968329],[-105.948087013536,40.6310518714266],[-105.948051522278,40.6317577489992],[-105.948018348784,40.6324175344625],[-105.948006952555,40.6330633269505],[-105.948006951588,40.633063359374],[-105.947995460809,40.6337145346983],[-105.947873391083,40.6344240696924],[-105.947568213626,40.6350725704494],[-105.947484361094,40.6360216348495],[-105.94748429072,40.6360224321074],[-105.947484694859,40.636027763615],[-105.947560584179,40.6370295135694],[-105.947566855772,40.6375375313489],[-105.947575842477,40.6382654781756],[-105.947667394178,40.6393870015665],[-105.947652135481,40.6402186071459],[-105.947743688848,40.6417826372394],[-105.947903906877,40.6423548430851],[-105.948575295085,40.6428126077767],[-105.949483193696,40.6431101548164],[-105.949504250868,40.6431162170551],[-105.950238507279,40.6433275931328],[-105.950512926802,40.6435204277511],[-105.950520728428,40.6435259107192],[-105.950520796133,40.6435259581863],[-105.950513165158,40.6438730961637],[-105.95042924266,40.6440523869636],[-105.950253764972,40.6442621966124],[-105.949979274251,40.6446739324103],[-105.949979106857,40.6446741834099],[-105.949979106509,40.6449259542643],[-105.950040140317,40.6453837192571],[-105.950497906122,40.6459139629702],[-105.952534959567,40.6466845341508],[-105.952559344616,40.6466954566666],[-105.953267383714,40.6470125984428],[-105.953528540055,40.6472239306039],[-105.953847218735,40.6474818070049],[-105.954037953869,40.6481074187023],[-105.954038023333,40.648108606254],[-105.954083729751,40.6488932481554],[-105.954072371337,40.6495462984052],[-105.954068470233,40.6497706309833],[-105.954182911417,40.6502474692897],[-105.954709340951,40.6513003271361],[-105.955411247324,40.6526316592855],[-105.955930047638,40.6539286600861],[-105.956060200629,40.6547237316822],[-105.956105523221,40.6550005918662],[-105.955907157915,40.6567057644193],[-105.955515449718,40.6578759434743],[-105.955304434955,40.6585063066388],[-105.955244342333,40.6588856350612],[-105.955243707158,40.6588896458705],[-105.955243398633,40.658891592254],[-105.955464651531,40.6591891379168],[-105.956303887581,40.6598643416336],[-105.957257562766,40.6609133850753],[-105.957654291953,40.6619052090262],[-105.958058650207,40.6630496201768],[-105.958958922325,40.6635874941706],[-105.959742575907,40.6643560807958],[-105.95995074552,40.6645602441385],[-105.960785325818,40.6655093822624],[-105.960894894198,40.6656339882326],[-105.961118044121,40.6658877623266],[-105.961634759044,40.6665270326248],[-105.96171313819,40.6666240003848],[-105.963269538497,40.6674327181147],[-105.964047739653,40.6677684122014],[-105.964459728291,40.6682452499459],[-105.964589427297,40.6693972905723],[-105.96463511856,40.6705509761512],[-105.964635204457,40.6705531461157],[-105.96449041457,40.6709951380098],[-105.964490245433,40.670995652894],[-105.964536021062,40.6714572314331],[-105.965314220874,40.6723155401204],[-105.965878798592,40.6734942851197],[-105.965955090298,40.6747607671231],[-105.966084791263,40.6757182573806],[-105.966550185563,40.67650790203],[-105.967168167035,40.6770877380445],[-105.967984514987,40.6772975458799],[-105.968816121043,40.6777781998407],[-105.969334919266,40.6787280610743],[-105.970059713531,40.6799296928505],[-105.970815027147,40.6808070759138],[-105.97129554375,40.6818939609018],[-105.971295679554,40.6818942665358],[-105.971242273045,40.6828288689065],[-105.970952353932,40.6835002578983],[-105.970532737305,40.684072463208],[-105.969548541855,40.6847552950648],[-105.969547461351,40.6847589727179],[-105.969350178199,40.6854304979885],[-105.969449360776,40.6863040654855],[-105.969830830809,40.6868037923586],[-105.970486960657,40.687173819301],[-105.97135671259,40.6877002474189],[-105.972379054296,40.6886348513381],[-105.973004665128,40.6893138686122],[-105.97337816903,40.6901828345115],[-105.97337850699,40.6901836211085],[-105.973180141919,40.691167815557],[-105.972350930983,40.6925509167207],[-105.972203576685,40.6927966942074],[-105.972079353805,40.6930847660127],[-105.971761071137,40.6938228499451],[-105.971616368212,40.6948471843066],[-105.971616111177,40.6948490053305],[-105.972012840959,40.6956615381279],[-105.97238455474,40.6960639633086],[-105.972890223352,40.6966113999197],[-105.973014730456,40.6968371585709],[-105.973584500716,40.6978702535213],[-105.974309293694,40.6990604413561],[-105.974900621655,40.699890820318],[-105.975026457544,40.7000675235976],[-105.975280895174,40.7005474156555],[-105.975305118716,40.7005931018251],[-105.97562918143,40.7012043050269],[-105.97574533856,40.7015325186828],[-105.975957246069,40.7021312794597],[-105.976506564012,40.7026844108315],[-105.977589940799,40.702989587896],[-105.978045311964,40.7031089855317],[-105.978841164132,40.7033176520306],[-105.979144111341,40.7034722837026],[-105.979188566043,40.7034949744547],[-105.979939798249,40.703878415191],[-105.980035653869,40.7039917001355],[-105.980779035442,40.7048702380716],[-105.981000287632,40.7059345418821],[-105.981870040163,40.7067318143385],[-105.982869493468,40.7071094706635],[-105.983891835024,40.7070903970016],[-105.983950546041,40.707112233355],[-105.985440605493,40.7076664165086],[-105.98571313377,40.7078390657581],[-105.987012263515,40.7086620555674],[-105.988156677275,40.7096424347986],[-105.988392941265,40.7101438421559],[-105.988499999718,40.7103710435732],[-105.988454322854,40.7112464914279],[-105.988454222066,40.711248426194],[-105.989121365455,40.7137745480383],[-105.989186645733,40.7140217176269],[-105.988995908641,40.7150135404469],[-105.989003522158,40.716182272832],[-105.989003539428,40.7161846555646],[-105.989377380348,40.7175770234623],[-105.989499170652,40.7183496291831],[-105.989499451041,40.7183514074537],[-105.989194274686,40.7190533140307],[-105.988614438669,40.719797180754],[-105.987813351192,40.7207432282016],[-105.987500526495,40.7212353248262],[-105.987500537724,40.7214046126169],[-105.987500544231,40.7214069872858],[-105.987767572847,40.7215939069201],[-105.987920162178,40.7217770131511],[-105.988011714768,40.7226429516082],[-105.988255855631,40.7231007153731],[-105.988705991136,40.7235584804377],[-105.989941957082,40.7243137917759],[-105.990361572763,40.7248402223764],[-105.99039203362,40.7260738641528],[-105.99039209074,40.7260761854745],[-105.98997258826,40.7267168789209],[-105.989972472364,40.7267170568122],[-105.990002991961,40.7272205983368],[-105.990300537314,40.7275868093341],[-105.990781190466,40.7279301335533],[-105.990933778508,40.728365010508],[-105.991383914194,40.7289601041416],[-105.992711431455,40.7299404824234],[-105.993855844539,40.7311535601876],[-105.99391687857,40.7317944299448],[-105.994244942274,40.7321835294696],[-105.99484766713,40.7325039652292],[-105.995694532449,40.7331639102998],[-105.997044937333,40.7338734438705],[-105.99809779606,40.734262544784],[-105.99845637931,40.7342625447579],[-105.998700519642,40.7343312103259],[-105.999989891238,40.7343769866395],[-106.003446015253,40.7368336566879],[-106.003454033869,40.7368363659613],[-106.003728302686,40.7369290249824],[-106.004361542575,40.7373219385093],[-106.004857455844,40.7374440104829],[-106.005429660135,40.7376576329646],[-106.005788416655,40.7383153519078],[-106.005795873685,40.7383290219529],[-106.005879795735,40.7386685296832],[-106.006047644535,40.7387753419735],[-106.006703084521,40.7388948233226],[-106.006780068545,40.7389088565816],[-106.006894336927,40.7390159852052],[-106.006902137184,40.739023298677],[-106.007810036985,40.7401028596945],[-106.007947367165,40.7402173017311],[-106.00812284465,40.7402592633724],[-106.008664532551,40.7402325590969],[-106.008954449382,40.7402020420388],[-106.00908415093,40.7402668926008],[-106.009213850445,40.7404614420745],[-106.009625838349,40.7406025867388],[-106.009961531007,40.740839097024],[-106.010081278922,40.7410187178123],[-106.01012175031,40.7410794252368],[-106.01009123112,40.7413388244348],[-106.009931014141,40.7416745187972],[-106.009841123643,40.7420148177373],[-106.009824202093,40.7420788767231],[-106.009819049852,40.7421196633082],[-106.009778683049,40.7424392271211],[-106.009778425013,40.742441273341],[-106.009938643525,40.7426358244297],[-106.010266707893,40.7427273772315],[-106.010610032118,40.7430096654286],[-106.010777879607,40.7431012186603],[-106.011166978376,40.7433758780275],[-106.01143400858,40.7433873215139],[-106.011631619034,40.7434443249055],[-106.01163237253,40.7434445422274],[-106.011563999108,40.7436458663271],[-106.011563708412,40.7436467222003],[-106.01163237215,40.7439862301738],[-106.011899403156,40.7447835033594],[-106.012113026246,40.7455273706458],[-106.012235095755,40.7456494416421],[-106.012278603429,40.7456562664705],[-106.012624196995,40.7457104773327],[-106.012807164802,40.7457680780127],[-106.01283017243,40.7457729450071],[-106.01339474776,40.7466808439917],[-106.013654148666,40.747424711837],[-106.013791477721,40.7481418761016],[-106.013791393508,40.7481437225454],[-106.013791495874,40.7481442588061],[-106.01376870415,40.7486418973854],[-106.013768608751,40.7486439852183],[-106.014058525493,40.7493954824844],[-106.014211113705,40.7496625116931],[-106.014546807273,40.7500172794023],[-106.014554594569,40.7500237044871],[-106.014699396759,40.7501431654043],[-106.014836954275,40.7503422616298],[-106.014844355178,40.7503529730877],[-106.014867066783,40.7506406645225],[-106.014867242461,40.7506428916396],[-106.014508660347,40.7509976593691],[-106.014249690147,40.7514165829327],[-106.014249260852,40.7514172764272],[-106.014386589234,40.7519360775122],[-106.014684136338,40.752855420451],[-106.01537841183,40.7531605962748],[-106.01663937387,40.7533871167446],[-106.016652524598,40.7533894790808],[-106.017743531401,40.7537442472209],[-106.018308107594,40.7540417938693],[-106.019048160087,40.7541219029974],[-106.020594747707,40.7544793353457],[-106.021672678871,40.7547284417109],[-106.021756139789,40.755210249048],[-106.021756293511,40.7552111380756],[-106.021756600906,40.7552129098273],[-106.021336983423,40.75610173542],[-106.020604560257,40.7567807532888],[-106.020070526751,40.7572423100616],[-106.020070500865,40.7572423317896],[-106.020093389334,40.7584706669929],[-106.020642706384,40.7585889233814],[-106.02066005853,40.7586048868826],[-106.021214913047,40.7591153528724],[-106.021691644702,40.7596944323291],[-106.022672129854,40.7608853753753],[-106.022676589536,40.7608888295938],[-106.02329774251,40.7613698438579],[-106.023388641224,40.7618167709777],[-106.023388962592,40.7618183499477],[-106.023389293827,40.7618199793024],[-106.023388121999,40.761820369984],[-106.023091747034,40.7619191611667],[-106.023038341761,40.7624761091458],[-106.022880200996,40.7630408973726],[-106.022878169251,40.7630481538618],[-106.022878124299,40.7630483134553],[-106.022771312345,40.7635747432919],[-106.022916270276,40.7643910902861],[-106.023396923336,40.7650357760287],[-106.023839429,40.7655431317444],[-106.02364106551,40.766027599228],[-106.02375550629,40.7663365899623],[-106.024259048186,40.7666684694547],[-106.024648146641,40.7668363171132],[-106.02512879984,40.7673207841522],[-106.02534242279,40.7675572959842],[-106.025807818251,40.7677098834909],[-106.025809525527,40.7677119217713],[-106.026044328934,40.7679921722347],[-106.026059477005,40.7683519518242],[-106.026059491434,40.7683522831497],[-106.026059587446,40.7683545691318],[-106.025746783417,40.7687436696518],[-106.025740932766,40.7687493620829],[-106.025182204651,40.7692929868848],[-106.024857541695,40.7699725182202],[-106.024854141963,40.7699796331983],[-106.023909016025,40.7713020468187],[-106.023908093848,40.7713033368991],[-106.024144605503,40.7715779954931],[-106.024739699901,40.7719442066123],[-106.025746781324,40.7722074222615],[-106.026257952306,40.7725469307342],[-106.027203999427,40.7727910723779],[-106.027212456363,40.7727926622875],[-106.028096641025,40.7729589186535],[-106.028663427627,40.7734728064606],[-106.028668846339,40.7734777194335],[-106.028920615999,40.7741376625362],[-106.0289891407,40.7751046098488],[-106.02898928187,40.7751065984488],[-106.028783286985,40.7757703572902],[-106.028775656753,40.7757829982021],[-106.02827211615,40.776617221246],[-106.028325522261,40.7775556398183],[-106.028989281296,40.7779447403433],[-106.02959963311,40.777773077439],[-106.030194380199,40.7776510790344],[-106.030194729095,40.7776510072084],[-106.030454127763,40.7779104073505],[-106.030072657928,40.7785589068024],[-106.02979799874,40.7791463718553],[-106.029675927525,40.7802144883134],[-106.029401268916,40.7807638062648],[-106.028944650575,40.7812128136785],[-106.028943503184,40.7812139418224],[-106.029103720233,40.7816030424703],[-106.029393639769,40.7816984090645],[-106.029973474011,40.7819349213545],[-106.030652492093,40.7823202056279],[-106.030751674683,40.7831136655421],[-106.031392543764,40.7838079411589],[-106.032376739228,40.7843229278619],[-106.033483003592,40.7849523526724],[-106.033994173762,40.7853261954097],[-106.034627416014,40.7855932240716],[-106.035191992947,40.7855207439033],[-106.03520412093,40.7855196580784],[-106.036214332849,40.7854291922215],[-106.036900371032,40.7857005918441],[-106.036908609728,40.7857038516085],[-106.038297163791,40.7858259220048],[-106.039075363629,40.785799218847],[-106.03948735198,40.7862760580085],[-106.040189257362,40.7876112033384],[-106.040677539348,40.7884733267578],[-106.041654105459,40.7892095659743],[-106.042226309312,40.7901708707068],[-106.042424673796,40.7903234589941],[-106.043004510647,40.7905256391748],[-106.043729304541,40.7906210057367],[-106.044789791917,40.7918989329407],[-106.044789839708,40.7918994216956],[-106.044843197459,40.7924482506991],[-106.044812816052,40.7928812091585],[-106.044812681076,40.7928831269782],[-106.045064450599,40.7936422530593],[-106.04506592805,40.7936450224343],[-106.045430663102,40.7943289007557],[-106.045400230881,40.7947967991773],[-106.045400145509,40.7947981098202],[-106.04547631482,40.7955788669653],[-106.045476437559,40.7955801235048],[-106.045400144629,40.7964117299776],[-106.045201779209,40.7968504213382],[-106.045165818199,40.7968835156276],[-106.044675350497,40.7973348880038],[-106.044341262878,40.7976974075734],[-106.044317180938,40.7977235392571],[-106.044316767453,40.797723987839],[-106.044446468635,40.798303823654],[-106.045636655899,40.8001425120401],[-106.046117125972,40.8008327120515],[-106.046117308212,40.8008329732469],[-106.046269896467,40.8016226171018],[-106.046025755233,40.8020269761911],[-106.045888851525,40.8024871248036],[-106.045888425828,40.802488555002],[-106.046155455534,40.8030607612401],[-106.046788695751,40.8039724757177],[-106.047391419239,40.8046820116152],[-106.048070438195,40.8051207030633],[-106.049008855301,40.8055479497188],[-106.05014563691,40.8054754696102],[-106.051076426457,40.8054754697052],[-106.051770423909,40.8059025460212],[-106.051770701438,40.805902716706],[-106.051724925043,40.8062956312142],[-106.051091684893,40.8071691991733],[-106.050817206165,40.808309046317],[-106.05081702505,40.8083097972945],[-106.050923836781,40.8091795496191],[-106.051496042691,40.8098509377869],[-106.052167431287,40.8102819984447],[-106.052274905203,40.8103168140938],[-106.052709120452,40.8104574753441],[-106.052799722211,40.8107594841369],[-106.052800672659,40.8107626521202],[-106.052709118415,40.8110640134632],[-106.052762525189,40.81144166982],[-106.053020206569,40.8116686734624],[-106.053082961174,40.8117239571469],[-106.053105594259,40.8120219625345],[-106.053105849379,40.8120253193136],[-106.05305244289,40.812357199159],[-106.053197401345,40.8127005226429],[-106.053563612803,40.8129294040939],[-106.053983231462,40.8133642810015],[-106.054517288985,40.8136732730874],[-106.055783772152,40.8135512025929],[-106.056218648205,40.8138411190961],[-106.056363607378,40.8141729994337],[-106.056729819756,40.8143179572792],[-106.056734374028,40.814319452007],[-106.057218102206,40.8144781756534],[-106.057332543124,40.8146803547096],[-106.057355066614,40.8148455259853],[-106.057355262198,40.8148469604575],[-106.057355431291,40.8148482014475],[-106.057354839668,40.8148501862858],[-106.057248618767,40.8152067840469],[-106.057248619793,40.8156620157203],[-106.057248619411,40.8156645488441],[-106.057247461514,40.8156770308759],[-106.057195212165,40.8162405689616],[-106.057088400968,40.8167402955007],[-106.057134177068,40.8171599131886],[-106.058019189433,40.8175947896684],[-106.058572443474,40.8178143087148],[-106.059201748461,40.8180639978296],[-106.06005722035,40.8186219147613],[-106.060079130383,40.8186362041985],[-106.060498749518,40.819143561321],[-106.06094888292,40.8192847052321],[-106.061948337243,40.819547919454],[-106.06318430067,40.8204596342777],[-106.063672585031,40.8212607216727],[-106.064252418933,40.8216078606232],[-106.06511454226,40.8215582703516],[-106.065953777591,40.8217757076293],[-106.066823532524,40.821832928773],[-106.067853502978,40.8222372874356],[-106.069089467983,40.8221457338341],[-106.070737420837,40.8223708023063],[-106.071233331303,40.8228629001253],[-106.071843685175,40.8236220253671],[-106.072324337086,40.824121751998],[-106.07254559021,40.8246748838382],[-106.073461119489,40.8251173898973],[-106.074118757013,40.8253927290331],[-106.074727601503,40.825647634544],[-106.075157490965,40.8261755670763],[-106.075162478388,40.826181692941],[-106.075168276793,40.8261953295102],[-106.075574466564,40.827150628133],[-106.075807648323,40.8279554823823],[-106.075810978252,40.8279669752844],[-106.076291631326,40.8284514432043],[-106.076317508664,40.8284514433273],[-106.076924873314,40.828451443785],[-106.077232217488,40.8285355965175],[-106.077245307812,40.8285391806272],[-106.077886178197,40.8293555285964],[-106.07807691362,40.8295386343774],[-106.079000072916,40.8302825021366],[-106.079740125473,40.830702120411],[-106.08028181465,40.8309462604192],[-106.081311783966,40.831209475198],[-106.081883991224,40.8312819551739],[-106.081893604927,40.8312811301229],[-106.083385002162,40.8315221643378],[-106.083394613215,40.8315260956293],[-106.084333032317,40.8322089286082],[-106.085706326174,40.8326628788967],[-106.085912138386,40.8327595497431],[-106.086713407617,40.8331359022401],[-106.087205097251,40.8333817472297],[-106.087331391352,40.8334448935897],[-106.087865248182,40.8345926858769],[-106.087750986444,40.8358228885487],[-106.087751384898,40.8358231693001],[-106.087751007229,40.8358252702696],[-106.088018036796,40.8361762224385],[-106.089162450142,40.836820907473],[-106.089917760533,40.8372214518211],[-106.089928141452,40.8372340865262],[-106.090497595221,40.8379271724855],[-106.090680292592,40.8383199751309],[-106.0908790662,40.8387473347401],[-106.091344460506,40.8392661350644],[-106.091909037052,40.8398230819822],[-106.091794596316,40.8403647698736],[-106.091870889549,40.8407424247366],[-106.092107401353,40.840879754895],[-106.092160274502,40.8408853066883],[-106.092870343351,40.8409598640632],[-106.093367390082,40.8410663753131],[-106.093404401532,40.8410743061262],[-106.094953172496,40.8416846583831],[-106.094989699698,40.8416813376164],[-106.096364848645,40.8416460401332],[-106.096486625051,40.8416482240534],[-106.097241996166,40.8416617703224],[-106.098117867432,40.8417353440786],[-106.09819567254,40.8417418793446],[-106.099111203277,40.8421347929885],[-106.09955370799,40.8428366999293],[-106.100681548926,40.8436025640176],[-106.100682861233,40.8436034550648],[-106.100263244398,40.8440879240707],[-106.099980955146,40.8447821992042],[-106.099553707765,40.8470214325184],[-106.09840929569,40.8480895492946],[-106.097966789429,40.8488868223792],[-106.097936351892,40.849773313649],[-106.097936271822,40.8497756481483],[-106.098676323976,40.8501227866254],[-106.09967577806,40.8511336841366],[-106.099691551201,40.8511403982895],[-106.100240352567,40.8513740105738],[-106.100863325987,40.8518152822854],[-106.100881224439,40.8518279601393],[-106.101857787841,40.8523772771556],[-106.102681766786,40.8522704665035],[-106.103650701681,40.8520263260361],[-106.105123178378,40.8520988046046],[-106.106908459811,40.8521216933249],[-106.106913205415,40.8521228230995],[-106.107549331977,40.852274281168],[-106.107488296208,40.8525489405653],[-106.107160229894,40.853063926398],[-106.106451141465,40.8535762582839],[-106.105703013193,40.8541167837384],[-106.105460204173,40.854598121781],[-106.105054511892,40.8554023395344],[-106.104840890244,40.8562835358599],[-106.104314459848,40.8579887098373],[-106.103696724855,40.8593042552519],[-106.103696476952,40.8593047824222],[-106.103772770666,40.8598312134257],[-106.104116093336,40.8603690855442],[-106.104512822731,40.8605560069714],[-106.105817453866,40.8608230361931],[-106.107183116901,40.8614105013912],[-106.10732044689,40.8620704448486],[-106.107167859662,40.862345104506],[-106.107381482523,40.8629516416894],[-106.107823988199,40.8632987799516],[-106.109311722837,40.8635314782451],[-106.110936789216,40.863886244219],[-106.112607630367,40.864321121124],[-106.113538418374,40.8649734356986],[-106.113549231183,40.8649751051475],[-106.114057217716,40.8650535458384],[-106.114497970852,40.8653299495623],[-106.11450735255,40.8653358326569],[-106.114804900055,40.8658546341325],[-106.115178741178,40.8661750685512],[-106.11569754038,40.8663047688],[-106.115956941674,40.8664840599409],[-106.117276829681,40.8664001370346],[-106.117963476299,40.8659957777439],[-106.117967775048,40.8659939738249],[-106.118390723281,40.8658164858582],[-106.118813673945,40.8661072638257],[-106.118817971343,40.8661102180905],[-106.119435954936,40.8671668925949],[-106.120221782853,40.8676742478555],[-106.121144845109,40.8675331731059],[-106.121968919572,40.867407219658],[-106.122583176276,40.8675383108218],[-106.122594530491,40.8675407338644],[-106.123677906606,40.868292230549],[-106.124067008141,40.8688491785236],[-106.1240922824,40.8688557584684],[-106.124990165608,40.8690895038489],[-106.125390877649,40.8693158331669],[-106.12540215267,40.869322201421],[-106.126310053757,40.8695968608721],[-106.126312784285,40.8696019394201],[-106.126744931419,40.8704055779897],[-106.12675608192,40.8708032954909],[-106.126767818747,40.871221925527],[-106.127111141083,40.8718246483108],[-106.130086612529,40.873911292484],[-106.130330752963,40.8747886743149],[-106.130742742383,40.8750175572724],[-106.131108954204,40.8757385371815],[-106.131110824597,40.8757401308521],[-106.131574348178,40.8761352656767],[-106.131841377043,40.8765930308152],[-106.131635383389,40.8768448009228],[-106.131620023824,40.8768512855566],[-106.131292060249,40.8769897599782],[-106.130687158099,40.8773905974354],[-106.130658818282,40.877409377076],[-106.13013238861,40.8776191855788],[-106.129399965547,40.8782562425249],[-106.12919397034,40.878679673961],[-106.129026123132,40.8792061029263],[-106.12863702388,40.8796104614068],[-106.128385252364,40.8800529676016],[-106.127996151916,40.8812545999814],[-106.127668086678,40.8820442440747],[-106.127663142087,40.8820600805234],[-106.127423946158,40.8828262594235],[-106.12719969983,40.8837755716091],[-106.127195064363,40.8837951938214],[-106.12703504336,40.8849305777639],[-106.127034846379,40.8849319763784],[-106.127294245248,40.8860954613143],[-106.127584162807,40.8870643967208],[-106.128110593718,40.8874840135776],[-106.128111416257,40.8874851851922],[-106.128461545052,40.8879837401259],[-106.128606503517,40.8885406877824],[-106.128461546403,40.8889603055636],[-106.128400843751,40.8893207231559],[-106.129163429387,40.8901824435997],[-106.129529640757,40.8906669102998],[-106.129734998655,40.891233365776],[-106.129979797588,40.8915504905218],[-106.129987376953,40.8919295056102],[-106.129987426047,40.8919319609705],[-106.130521485635,40.8925690169865],[-106.130523026603,40.8925706115362],[-106.130849550788,40.8929085249932],[-106.130780885576,40.8932289606533],[-106.13063592794,40.8936981692539],[-106.130338380559,40.8942551165026],[-106.130147913166,40.8955350592294],[-106.130147645205,40.8955368580417],[-106.130445191512,40.8961357665365],[-106.130666443203,40.8966507519789],[-106.131040285373,40.8970131490347],[-106.131092451994,40.8970402897733],[-106.131604862745,40.8973068805826],[-106.132041101606,40.8975769346799],[-106.132085513511,40.8976044275818],[-106.132322026325,40.8979363064854],[-106.132611943495,40.8982109663049],[-106.133519843779,40.8987526544063],[-106.133569067621,40.8987623180886],[-106.134763438271,40.898996795464],[-106.135606091831,40.8992605830435],[-106.135640820758,40.8992714547966],[-106.135646701834,40.899275795558],[-106.136121472524,40.8996262216951],[-106.136324948063,40.9000482422392],[-106.136327274681,40.9000530669689],[-106.136327468371,40.9000534693309],[-106.136434279427,40.9005608243538],[-106.136235913826,40.901110142121],[-106.136234693802,40.9011125269392],[-106.135984143743,40.9016022398025],[-106.136037550121,40.9018997866224],[-106.136327467811,40.9020714478596],[-106.136899673425,40.9022583688543],[-106.137738908544,40.9023880687217],[-106.137835042964,40.9023937916447],[-106.138700215448,40.9024452891979],[-106.138969300932,40.9025608829148],[-106.138999188383,40.90257372158],[-106.139241902827,40.9026779866993],[-106.139753073913,40.9028725367947],[-106.140126371622,40.903182374113],[-106.140134544614,40.9031891577092],[-106.141195032199,40.904005504034],[-106.141988491056,40.9043679012954],[-106.142774321459,40.9046997808501],[-106.143483855923,40.9049439215808],[-106.144597750962,40.9048409248205],[-106.145674833514,40.9046826645692],[-106.146466957061,40.9045662675099],[-106.147298563812,40.9046807085066],[-106.147705376305,40.9049142497371],[-106.147710549958,40.904917219673],[-106.147720479659,40.9049257660547],[-106.148175945221,40.9053177640911],[-106.148482078803,40.9057620308529],[-106.148488751014,40.9057717136413],[-106.148931257026,40.906156998138],[-106.149511092324,40.9064736196709],[-106.150106185302,40.9067559072085],[-106.150830978989,40.9068474605699],[-106.151616810316,40.906832202423],[-106.151625671354,40.9068390282043],[-106.151899097933,40.9070496400145],[-106.152264047258,40.9075006627003],[-106.152303456113,40.9075493659682],[-106.15276885048,40.9080262051242],[-106.153531792583,40.909147728766],[-106.154012445654,40.9094643493137],[-106.154217291385,40.9095162440045],[-106.154584651364,40.9096093078256],[-106.155347593032,40.9097161196319],[-106.156040588741,40.9099992804201],[-106.156057127218,40.9100060384573],[-106.156652222087,40.9103073990308],[-106.157407533284,40.9104599874648],[-106.157413546412,40.9104621706301],[-106.157964480472,40.9106621670548],[-106.158311644814,40.9111414053424],[-106.158315432581,40.9111466338165],[-106.15852905587,40.9115166620552],[-106.15883408405,40.9119627633315],[-106.158834233381,40.9119629822073],[-106.158994450034,40.9128098460154],[-106.158750309789,40.9133973100643],[-106.158747494777,40.9134008855292],[-106.158368837964,40.9138817783496],[-106.158323401631,40.914305871524],[-106.158323279838,40.9143070113176],[-106.158323063327,40.9143090251108],[-106.158620609267,40.9147667902774],[-106.159459844555,40.9149880431917],[-106.160016792335,40.9150872249706],[-106.160581369066,40.9151482607664],[-106.16126038674,40.9156746909758],[-106.161535043953,40.9161591575825],[-106.162320874927,40.9166283674314],[-106.162458205041,40.9167695111905],[-106.165769368593,40.9177270027432],[-106.167585168736,40.9184403528057],[-106.168470180254,40.919249070511],[-106.168905033066,40.9200882593991],[-106.168905057264,40.9200883051851],[-106.168905057156,40.9203591495304],[-106.168416899548,40.9217740412339],[-106.168416773761,40.9217744048461],[-106.168409144411,40.9222016517241],[-106.168500697125,40.9229111869783],[-106.168851650559,40.9235558724443],[-106.169446745291,40.9238457898096],[-106.170270721345,40.924040340797],[-106.170295425417,40.9240437479426],[-106.171155732772,40.9241624109206],[-106.171815795908,40.9243997362426],[-106.171834750139,40.9244065510966],[-106.172849462132,40.9248261697698],[-106.172874349761,40.9248536964188],[-106.173353004057,40.9253831166881],[-106.173633224527,40.9257647988802],[-106.17367680295,40.9258241557994],[-106.174016763033,40.9262872021153],[-106.174621279366,40.9271869492467],[-106.17467286815,40.9272613848679],[-106.17530610996,40.9282951686509],[-106.17632082057,40.9291801811027],[-106.177001408878,40.9297590937493],[-106.177974141588,40.9304978739868],[-106.177990357573,40.9305125531716],[-106.178228197088,40.930693186152],[-106.178249937786,40.9307475388574],[-106.178319750845,40.9309220693919],[-106.179364980674,40.9315629389553],[-106.17946416217,40.931601086704],[-106.179635378962,40.9316315254143],[-106.180150809741,40.9317231574604],[-106.180524101319,40.9318647518039],[-106.18056789005,40.9318813610491],[-106.18103582107,40.9320588514296],[-106.181776855075,40.9324620612793],[-106.181814021266,40.9324822835636],[-106.181851309022,40.9325046563645],[-106.182576962422,40.9329400491895],[-106.182983329169,40.933255708094],[-106.183004209929,40.9332719279591],[-106.183439087036,40.9335160695199],[-106.184720827438,40.9340157969288],[-106.185247257255,40.9348550313843],[-106.185582950159,40.9367700140905],[-106.186208562697,40.9368730110169],[-106.186574760153,40.9393830014939],[-106.186574761027,40.9393830870338],[-106.186658698112,40.9401803600271],[-106.186582613085,40.9408651136159],[-106.186582403227,40.940867006743],[-106.186803655603,40.941328585967],[-106.186971503305,40.941835941542],[-106.18749030201,40.9425607361053],[-106.187726815317,40.9433694549514],[-106.187795478099,40.9441018773659],[-106.18797095599,40.9444680884577],[-106.188062507997,40.944555826742],[-106.188535532611,40.945265363069],[-106.1886301634,40.9456274358978],[-106.18871100718,40.9459367510069],[-106.188634714068,40.9464212191998],[-106.188459236683,40.9471116795322],[-106.18810065444,40.947897508813],[-106.187803108121,40.9484773444217],[-106.187792042063,40.948505357419],[-106.187558966981,40.9490953269666],[-106.187480898206,40.9493617786397],[-106.187383490433,40.9496942358249],[-106.187063054264,40.9502092202535],[-106.186063600726,40.9510560850045],[-106.185041259175,40.9522920497574],[-106.184392760149,40.9532113929674],[-106.184387348605,40.9532215152892],[-106.183980770204,40.9539819632905],[-106.183777481628,40.9546370065049],[-106.183774776693,40.9546457217445],[-106.183637846556,40.9552733193014],[-106.183637447069,40.9552751486865],[-106.1836984828,40.9556566183622],[-106.184049435048,40.9558130226811],[-106.184324093863,40.9561792338613],[-106.184336946845,40.9561872925899],[-106.18480474747,40.95648059613],[-106.185161166371,40.9568555779874],[-106.18517095896,40.9568658805071],[-106.186162782153,40.9575754169033],[-106.186406922538,40.9581247347532],[-106.186673539005,40.9591531081975],[-106.186673953239,40.9591547049954],[-106.186582399727,40.9594331787939],[-106.186254334815,40.9599329036936],[-106.185773681382,40.9602838574582],[-106.185178586367,40.9605203693344],[-106.184667940972,40.9610767436916],[-106.184667415826,40.9610773158601],[-106.184705564315,40.9614969331521],[-106.184941634122,40.9619804953175],[-106.184942075732,40.9619814004014],[-106.184835264359,40.962359056271],[-106.184316463114,40.9633585090027],[-106.184284070084,40.9636708646466],[-106.184263056583,40.9638734950165],[-106.184652158495,40.9640871193061],[-106.185087034358,40.9642320775976],[-106.185781311446,40.9642397065868],[-106.18630011204,40.9643198157],[-106.186308418835,40.9643238568787],[-106.186864687466,40.9645944739202],[-106.18711275306,40.9649440229542],[-106.187116100166,40.9649487406414],[-106.187116456926,40.9649492428064],[-106.187024905461,40.9654680422762],[-106.187019502559,40.9654822059038],[-106.186773132918,40.9661279855388],[-106.186490844527,40.9670969214004],[-106.186227238475,40.9679191231247],[-106.186170409253,40.9680963733249],[-106.186239074044,40.9688707593538],[-106.186146193135,40.969063155129],[-106.1860788566,40.9692026383495],[-106.18615515068,40.9702593114952],[-106.186513733744,40.9712091737806],[-106.187269044829,40.9717508617786],[-106.187948062184,40.9720751112557],[-106.188550785899,40.9723078082601],[-106.188555336255,40.9723117597236],[-106.1888407033,40.9725595791714],[-106.189141089873,40.9731228044769],[-106.189145879598,40.9731317844899],[-106.189451056379,40.9741388680078],[-106.189618903768,40.9745851886921],[-106.189619789891,40.9745896848782],[-106.189771492192,40.9753595733039],[-106.189824587622,40.9761370465231],[-106.189824767897,40.9761396775088],[-106.189824897998,40.9761415875208],[-106.189641790766,40.9769579346491],[-106.189458684082,40.9779497584863],[-106.189458685706,40.9786798726325],[-106.189458685629,40.9786821814136],[-106.189878302314,40.9799410349854],[-106.190442878498,40.9811197781883],[-106.190954049288,40.9820086047524],[-106.191266855107,40.9822107842031],[-106.191480478106,40.9822985224988],[-106.191480837756,40.98229906245],[-106.19168647276,40.9826075141232],[-106.191556773548,40.9828783572501],[-106.191228708573,40.9830881675512],[-106.191194404357,40.9831053195297],[-106.190679390996,40.9833628257455],[-106.190221601566,40.9836596726339],[-106.190191108334,40.9836794455785],[-106.190046217296,40.9839501639646],[-106.190046149666,40.9839502895272],[-106.189969854353,40.9842974285696],[-106.190076666496,40.9847017861966],[-106.190081132205,40.9847140664255],[-106.190244513452,40.9851633661632],[-106.190318779089,40.9854901320528],[-106.190320807726,40.9854990598332],[-106.190542059081,40.9860750803492],[-106.190915902406,40.9863802566632],[-106.191388924504,40.9865519184538],[-106.192106089069,40.9867045072677],[-106.192823254074,40.9868036891432],[-106.193784561263,40.9868265778743],[-106.194356766523,40.9869791667338],[-106.194745866551,40.9876009628101],[-106.194746119815,40.987602471374],[-106.194825787751,40.9887192130823],[-106.194610742316,40.9903960843536],[-106.194096770518,40.9914234814403],[-106.193410694727,40.9921876721347],[-106.192472277206,40.9931794949591],[-106.192460320395,40.9931912536188],[-106.191770394513,40.9937311947499],[-106.191615365115,40.9940222439735],[-106.191607329657,40.9940373299602],[-106.191366035527,40.9944903212217],[-106.191268734969,40.9948275220207],[-106.191265392173,40.9948391054056],[-106.191144782624,40.9952570767328],[-106.191154187589,40.9954604645026],[-106.191175300859,40.9959170206171],[-106.190969305974,40.9963290080152],[-106.190955187741,40.9963390395845],[-106.190389470925,40.9967409964775],[-106.19014383253,40.9970536267855],[-106.190137699248,40.9970614320679],[-106.189969852149,40.9976221932881],[-106.186017817084,40.9976221937104]]]},"properties":{"FID":1,"OBJECTID_1":1,"OBJECTID":1,"MAPKEY":"4724","Shape_Leng":1212759.26616,"SchoolDist":"Poudre School District","Shape_Le_1":1212914.41342,"Shape_Area":52747730235.5}}]}